{"type":"FeatureCollection","features":[{"type":"Feature","geometry":{"type":"Polygon","coordinates":[[[-76.74,42.783],[-76.734,42.728],[-76.729,42.713],[-76.72,42.7],[-76.695,42.683],[-76.688,42.675],[-76.666,42.623],[-76.615,42.625],[-76.614,42.622],[-76.459,42.627],[-76.459,42.619],[-76.266,42.624],[-76.261,42.55],[-76.113,42.556],[-76.097,42.542],[-76.065,42.543],[-76.072,42.647],[-75.884,42.656],[-75.89,42.724],[-75.429,42.745],[-75.428,42.738],[-75.375,42.74],[-75.296,42.744],[-75.293,42.748],[-75.29,42.749],[-75.291,42.752],[-75.284,42.751],[-75.28,42.754],[-75.278,42.76],[-75.28,42.764],[-75.277,42.766],[-75.275,42.764],[-75.274,42.766],[-75.276,42.767],[-75.274,42.768],[-75.273,42.773],[-75.268,42.776],[-75.266,42.775],[-75.264,42.778],[-75.263,42.776],[-75.259,42.777],[-75.259,42.781],[-75.256,42.781],[-75.258,42.783],[-75.251,42.785],[-75.253,42.787],[-75.252,42.788],[-75.252,42.791],[-75.25,42.792],[-75.253,42.796],[-75.25,42.797],[-75.252,42.798],[-75.252,42.8],[-75.25,42.8],[-75.251,42.802],[-75.249,42.806],[-75.25,42.806],[-75.248,42.807],[-75.249,42.812],[-75.248,42.815],[-75.244,42.815],[-75.242,42.818],[-75.246,42.817],[-75.248,42.822],[-75.248,42.823],[-75.25,42.824],[-75.24,42.834],[-75.242,42.837],[-75.241,42.838],[-75.243,42.839],[-75.242,42.843],[-75.248,42.845],[-75.246,42.847],[-75.248,42.85],[-75.245,42.851],[-75.246,42.853],[-75.245,42.854],[-75.247,42.855],[-75.244,42.858],[-75.244,42.862],[-75.245,42.862],[-75.245,42.865],[-75.248,42.864],[-75.245,42.869],[-75.247,42.869],[-75.248,42.872],[-75.246,42.873],[-75.243,42.878],[-75.201,42.881],[-75.219,43.053],[-75.196,43.078],[-75.182,43.075],[-75.178,43.083],[-75.184,43.083],[-75.182,43.088],[-75.186,43.088],[-75.161,43.115],[-75.198,43.122],[-75.227,43.132],[-75.243,43.11],[-75.248,43.116],[-75.247,43.113],[-75.255,43.113],[-75.258,43.116],[-75.256,43.118],[-75.258,43.119],[-75.259,43.123],[-75.264,43.121],[-75.264,43.125],[-75.269,43.124],[-75.267,43.126],[-75.282,43.132],[-75.291,43.14],[-75.296,43.14],[-75.299,43.137],[-75.301,43.138],[-75.303,43.14],[-75.3,43.142],[-75.299,43.145],[-75.304,43.148],[-75.308,43.146],[-75.314,43.149],[-75.311,43.153],[-75.314,43.158],[-75.321,43.164],[-75.324,43.164],[-75.333,43.169],[-75.332,43.172],[-75.335,43.17],[-75.337,43.173],[-75.336,43.174],[-75.34,43.176],[-75.339,43.177],[-75.341,43.179],[-75.544,43.169],[-75.514,43.133],[-75.547,43.128],[-75.553,43.135],[-75.575,43.125],[-75.578,43.13],[-75.585,43.127],[-75.588,43.131],[-75.585,43.133],[-75.587,43.134],[-75.591,43.13],[-75.599,43.125],[-75.612,43.125],[-75.641,43.117],[-75.639,43.114],[-75.646,43.11],[-75.653,43.108],[-75.656,43.11],[-75.653,43.114],[-75.66,43.114],[-75.661,43.116],[-75.67,43.115],[-75.674,43.118],[-75.673,43.122],[-75.68,43.121],[-75.681,43.121],[-75.681,43.124],[-75.685,43.124],[-75.685,43.125],[-75.678,43.127],[-75.686,43.129],[-75.687,43.134],[-75.694,43.133],[-75.694,43.135],[-75.697,43.137],[-75.695,43.14],[-75.698,43.139],[-75.702,43.137],[-75.707,43.137],[-75.708,43.14],[-75.707,43.141],[-75.706,43.145],[-75.709,43.147],[-75.707,43.151],[-75.712,43.151],[-75.714,43.149],[-75.716,43.151],[-75.714,43.153],[-75.718,43.152],[-75.723,43.156],[-75.719,43.158],[-75.72,43.161],[-75.724,43.163],[-75.723,43.16],[-75.725,43.157],[-75.728,43.16],[-75.727,43.162],[-75.731,43.161],[-75.732,43.163],[-75.738,43.165],[-75.745,43.159],[-75.75,43.158],[-75.751,43.16],[-75.753,43.159],[-75.754,43.16],[-75.758,43.161],[-75.762,43.166],[-75.769,43.17],[-75.775,43.171],[-75.776,43.173],[-75.778,43.173],[-75.777,43.17],[-75.778,43.168],[-75.786,43.167],[-75.793,43.16],[-75.796,43.161],[-75.798,43.159],[-75.816,43.161],[-75.828,43.159],[-75.84,43.16],[-75.853,43.156],[-75.857,43.15],[-75.868,43.147],[-75.873,43.149],[-75.875,43.153],[-75.886,43.156],[-75.925,43.162],[-75.928,43.163],[-75.928,43.169],[-75.933,43.177],[-75.953,43.171],[-75.959,43.175],[-75.959,43.18],[-75.972,43.18],[-75.98,43.177],[-75.985,43.18],[-75.987,43.184],[-75.993,43.185],[-75.994,43.182],[-76.003,43.18],[-76.004,43.177],[-76.006,43.178],[-76.004,43.177],[-76.003,43.179],[-76.008,43.181],[-76.012,43.186],[-76.024,43.19],[-76.032,43.191],[-76.035,43.196],[-76.047,43.202],[-76.053,43.203],[-76.053,43.202],[-76.052,43.201],[-76.053,43.201],[-76.055,43.199],[-76.058,43.201],[-76.079,43.2],[-76.082,43.202],[-76.082,43.207],[-76.081,43.209],[-76.077,43.208],[-76.085,43.211],[-76.085,43.213],[-76.081,43.214],[-76.068,43.213],[-76.069,43.215],[-76.079,43.215],[-76.079,43.219],[-76.08,43.216],[-76.085,43.217],[-76.099,43.225],[-76.106,43.224],[-76.107,43.227],[-76.116,43.234],[-76.13,43.234],[-76.14,43.24],[-76.148,43.24],[-76.169,43.247],[-76.174,43.251],[-76.18,43.254],[-76.182,43.258],[-76.203,43.272],[-76.212,43.267],[-76.209,43.264],[-76.213,43.257],[-76.211,43.244],[-76.213,43.24],[-76.205,43.237],[-76.205,43.229],[-76.203,43.222],[-76.194,43.217],[-76.199,43.213],[-76.206,43.217],[-76.211,43.211],[-76.208,43.208],[-76.218,43.205],[-76.224,43.205],[-76.23,43.208],[-76.234,43.212],[-76.245,43.215],[-76.25,43.225],[-76.258,43.234],[-76.257,43.237],[-76.264,43.236],[-76.268,43.24],[-76.273,43.24],[-76.276,43.239],[-76.272,43.235],[-76.268,43.233],[-76.267,43.227],[-76.264,43.226],[-76.262,43.224],[-76.262,43.218],[-76.271,43.204],[-76.281,43.201],[-76.283,43.207],[-76.288,43.212],[-76.289,43.218],[-76.308,43.231],[-76.316,43.229],[-76.324,43.232],[-76.345,43.231],[-76.345,43.233],[-76.479,43.227],[-76.473,43.146],[-76.481,43.146],[-76.486,43.143],[-76.476,43.125],[-76.473,43.115],[-76.472,43.105],[-76.474,43.104],[-76.491,43.106],[-76.498,43.103],[-76.499,43.1],[-76.493,43.015],[-76.57,43.011],[-76.569,42.997],[-76.571,42.997],[-76.568,42.954],[-76.589,42.953],[-76.588,42.955],[-76.591,42.955],[-76.591,42.956],[-76.596,42.956],[-76.596,42.959],[-76.601,42.959],[-76.6,42.953],[-76.597,42.953],[-76.596,42.936],[-76.597,42.936],[-76.597,42.933],[-76.597,42.931],[-76.595,42.931],[-76.593,42.895],[-76.635,42.893],[-76.635,42.898],[-76.734,42.894],[-76.725,42.879],[-76.721,42.87],[-76.721,42.854],[-76.717,42.839],[-76.719,42.825],[-76.727,42.811],[-76.738,42.795],[-76.74,42.783]]]},"properties":{"CD119":"22","BASENAME":"22"}},{"type":"Feature","geometry":{"type":"Polygon","coordinates":[[[-74.017,40.747],[-74.017,40.744],[-74.009,40.742],[-74.008,40.745],[-73.999,40.739],[-73.998,40.741],[-73.99,40.737],[-73.992,40.735],[-73.987,40.733],[-73.984,40.734],[-73.985,40.732],[-73.981,40.729],[-73.979,40.728],[-73.978,40.729],[-73.963,40.723],[-73.961,40.729],[-73.963,40.736],[-73.961,40.743],[-73.941,40.767],[-73.935,40.77],[-73.935,40.772],[-73.938,40.774],[-73.934,40.778],[-73.938,40.782],[-73.944,40.783],[-73.942,40.785],[-73.943,40.785],[-73.945,40.783],[-73.955,40.789],[-73.95,40.797],[-73.958,40.8],[-73.963,40.794],[-73.969,40.797],[-73.969,40.798],[-73.967,40.799],[-73.969,40.8],[-73.965,40.806],[-73.969,40.809],[-73.965,40.814],[-73.971,40.816],[-74.014,40.758],[-74.017,40.747]]]},"properties":{"CD119":"12","BASENAME":"12"}},{"type":"Feature","geometry":{"type":"Polygon","coordinates":[[[-73.94,40.768],[-73.939,40.767],[-73.94,40.766],[-73.935,40.764],[-73.934,40.766],[-73.931,40.764],[-73.93,40.762],[-73.93,40.761],[-73.925,40.759],[-73.925,40.757],[-73.924,40.758],[-73.921,40.757],[-73.919,40.759],[-73.916,40.758],[-73.914,40.76],[-73.912,40.759],[-73.909,40.761],[-73.906,40.76],[-73.907,40.757],[-73.896,40.758],[-73.894,40.749],[-73.889,40.749],[-73.889,40.747],[-73.872,40.749],[-73.872,40.745],[-73.869,40.745],[-73.851,40.75],[-73.855,40.758],[-73.851,40.758],[-73.844,40.762],[-73.84,40.763],[-73.838,40.768],[-73.83,40.774],[-73.825,40.782],[-73.823,40.791],[-73.826,40.796],[-73.823,40.796],[-73.828,40.804],[-73.811,40.805],[-73.79,40.8],[-73.785,40.803],[-73.779,40.812],[-73.78,40.826],[-73.758,40.846],[-73.748,40.872],[-73.823,40.891],[-73.822,40.889],[-73.824,40.89],[-73.824,40.888],[-73.82,40.886],[-73.823,40.873],[-73.819,40.862],[-73.827,40.859],[-73.83,40.864],[-73.83,40.862],[-73.841,40.868],[-73.841,40.863],[-73.843,40.863],[-73.843,40.859],[-73.849,40.859],[-73.851,40.855],[-73.848,40.854],[-73.85,40.851],[-73.859,40.847],[-73.859,40.845],[-73.868,40.845],[-73.873,40.841],[-73.876,40.842],[-73.877,40.84],[-73.884,40.84],[-73.89,40.829],[-73.895,40.828],[-73.897,40.826],[-73.897,40.822],[-73.902,40.82],[-73.903,40.817],[-73.905,40.818],[-73.909,40.816],[-73.91,40.813],[-73.913,40.814],[-73.915,40.811],[-73.921,40.812],[-73.924,40.807],[-73.929,40.809],[-73.932,40.808],[-73.927,40.803],[-73.923,40.802],[-73.92,40.799],[-73.912,40.796],[-73.91,40.791],[-73.929,40.777],[-73.933,40.778],[-73.936,40.777],[-73.938,40.774],[-73.935,40.772],[-73.935,40.77],[-73.94,40.768]]]},"properties":{"CD119":"14","BASENAME":"14"}},{"type":"Feature","geometry":{"type":"Polygon","coordinates":[[[-74.035,40.589],[-74.038,40.589],[-74.034,40.576],[-74.036,40.551],[-73.879,40.575],[-73.85,40.589],[-73.835,40.607],[-73.833,40.628],[-73.848,40.644],[-73.855,40.643],[-73.856,40.649],[-73.863,40.658],[-73.858,40.66],[-73.858,40.663],[-73.856,40.664],[-73.858,40.672],[-73.86,40.671],[-73.861,40.674],[-73.87,40.673],[-73.873,40.678],[-73.9,40.674],[-73.9,40.677],[-73.938,40.699],[-73.938,40.697],[-73.954,40.695],[-73.954,40.691],[-73.976,40.69],[-73.976,40.687],[-73.977,40.687],[-73.977,40.685],[-73.973,40.686],[-73.972,40.683],[-73.968,40.682],[-73.968,40.68],[-73.956,40.678],[-73.955,40.679],[-73.925,40.677],[-73.925,40.674],[-73.917,40.673],[-73.917,40.671],[-73.923,40.668],[-73.923,40.667],[-73.92,40.668],[-73.92,40.662],[-73.909,40.652],[-73.913,40.649],[-73.912,40.647],[-73.908,40.649],[-73.907,40.648],[-73.92,40.642],[-73.918,40.629],[-73.92,40.629],[-73.92,40.626],[-73.928,40.626],[-73.927,40.624],[-73.93,40.623],[-73.931,40.617],[-73.932,40.618],[-73.941,40.612],[-73.939,40.61],[-73.942,40.608],[-73.942,40.605],[-73.946,40.605],[-73.945,40.602],[-73.954,40.601],[-73.954,40.604],[-73.957,40.603],[-73.957,40.601],[-73.966,40.6],[-73.966,40.598],[-73.985,40.596],[-73.993,40.59],[-73.992,40.587],[-73.989,40.584],[-73.99,40.581],[-73.988,40.58],[-74.035,40.589]]]},"properties":{"CD119":"08","BASENAME":"8"}},{"type":"Feature","geometry":{"type":"Polygon","coordinates":[[[-74.038,40.538],[-74.042,40.508],[-73.978,40.519],[-73.89,40.486],[-73.877,40.501],[-73.87,40.502],[-73.855,40.512],[-73.826,40.523],[-73.784,40.532],[-73.769,40.534],[-73.762,40.55],[-73.758,40.555],[-73.755,40.585],[-73.745,40.593],[-73.737,40.593],[-73.738,40.603],[-73.744,40.608],[-73.746,40.612],[-73.755,40.61],[-73.76,40.611],[-73.767,40.615],[-73.769,40.624],[-73.767,40.627],[-73.746,40.635],[-73.743,40.638],[-73.741,40.638],[-73.743,40.635],[-73.74,40.635],[-73.742,40.64],[-73.741,40.647],[-73.725,40.653],[-73.728,40.663],[-73.728,40.674],[-73.726,40.68],[-73.727,40.711],[-73.73,40.722],[-73.734,40.719],[-73.74,40.717],[-73.745,40.723],[-73.75,40.72],[-73.757,40.726],[-73.767,40.726],[-73.778,40.723],[-73.775,40.725],[-73.778,40.73],[-73.78,40.73],[-73.779,40.728],[-73.781,40.729],[-73.799,40.724],[-73.797,40.721],[-73.799,40.72],[-73.798,40.717],[-73.791,40.719],[-73.788,40.717],[-73.792,40.714],[-73.796,40.716],[-73.794,40.712],[-73.796,40.714],[-73.803,40.712],[-73.805,40.709],[-73.81,40.708],[-73.809,40.707],[-73.812,40.706],[-73.812,40.709],[-73.821,40.71],[-73.826,40.716],[-73.832,40.715],[-73.834,40.713],[-73.843,40.709],[-73.857,40.708],[-73.856,40.706],[-73.86,40.703],[-73.855,40.703],[-73.852,40.696],[-73.85,40.697],[-73.847,40.69],[-73.848,40.69],[-73.846,40.689],[-73.851,40.688],[-73.849,40.683],[-73.852,40.683],[-73.85,40.675],[-73.853,40.672],[-73.851,40.671],[-73.857,40.67],[-73.856,40.664],[-73.858,40.663],[-73.858,40.66],[-73.863,40.658],[-73.856,40.649],[-73.855,40.643],[-73.848,40.644],[-73.833,40.628],[-73.835,40.607],[-73.85,40.589],[-73.879,40.575],[-74.036,40.551],[-74.038,40.538]]]},"properties":{"CD119":"05","BASENAME":"5"}},{"type":"Feature","geometry":{"type":"Polygon","coordinates":[[[-73.991,40.693],[-73.982,40.692],[-73.981,40.688],[-73.979,40.687],[-73.976,40.687],[-73.976,40.69],[-73.954,40.691],[-73.954,40.695],[-73.938,40.697],[-73.938,40.699],[-73.9,40.677],[-73.9,40.674],[-73.873,40.678],[-73.87,40.673],[-73.863,40.675],[-73.861,40.674],[-73.86,40.671],[-73.858,40.672],[-73.857,40.67],[-73.851,40.671],[-73.853,40.672],[-73.85,40.675],[-73.852,40.683],[-73.849,40.683],[-73.851,40.688],[-73.846,40.689],[-73.848,40.69],[-73.847,40.69],[-73.85,40.697],[-73.852,40.696],[-73.855,40.703],[-73.86,40.703],[-73.856,40.706],[-73.857,40.708],[-73.862,40.707],[-73.865,40.711],[-73.862,40.712],[-73.873,40.713],[-73.875,40.712],[-73.879,40.712],[-73.88,40.714],[-73.885,40.712],[-73.905,40.713],[-73.914,40.723],[-73.905,40.729],[-73.901,40.734],[-73.901,40.739],[-73.904,40.738],[-73.903,40.741],[-73.916,40.743],[-73.913,40.749],[-73.91,40.747],[-73.908,40.75],[-73.906,40.751],[-73.905,40.756],[-73.907,40.758],[-73.906,40.76],[-73.909,40.761],[-73.912,40.759],[-73.914,40.76],[-73.916,40.758],[-73.919,40.759],[-73.921,40.757],[-73.924,40.758],[-73.925,40.757],[-73.925,40.759],[-73.93,40.761],[-73.93,40.762],[-73.931,40.764],[-73.934,40.766],[-73.935,40.764],[-73.94,40.766],[-73.939,40.767],[-73.941,40.767],[-73.961,40.743],[-73.963,40.736],[-73.962,40.724],[-73.968,40.717],[-73.97,40.708],[-73.973,40.709],[-73.979,40.706],[-73.981,40.701],[-73.99,40.701],[-73.991,40.693]]]},"properties":{"CD119":"07","BASENAME":"7"}},{"type":"Feature","geometry":{"type":"Polygon","coordinates":[[[-79.762,42.516],[-79.762,41.999],[-79.158,42.0],[-78.857,41.998],[-78.623,42.0],[-78.279,41.999],[-78.121,42.0],[-77.828,41.998],[-77.504,42.0],[-77.161,42.0],[-76.829,42.002],[-76.418,41.999],[-76.106,41.999],[-76.106,42.031],[-76.105,42.032],[-76.112,42.101],[-76.107,42.102],[-76.108,42.112],[-76.112,42.112],[-76.116,42.186],[-76.087,42.187],[-76.087,42.194],[-76.084,42.194],[-76.086,42.211],[-76.081,42.211],[-76.081,42.23],[-76.085,42.23],[-76.085,42.235],[-76.087,42.235],[-76.087,42.244],[-76.091,42.244],[-76.091,42.25],[-76.096,42.249],[-76.097,42.257],[-76.081,42.258],[-76.081,42.265],[-76.083,42.265],[-76.083,42.272],[-76.087,42.272],[-76.088,42.279],[-76.101,42.278],[-76.101,42.287],[-76.107,42.287],[-76.107,42.294],[-76.099,42.294],[-76.099,42.303],[-76.102,42.303],[-76.102,42.31],[-76.106,42.31],[-76.106,42.319],[-76.112,42.319],[-76.112,42.327],[-76.116,42.327],[-76.117,42.337],[-76.109,42.337],[-76.11,42.347],[-76.111,42.347],[-76.112,42.357],[-76.115,42.357],[-76.115,42.367],[-76.122,42.367],[-76.123,42.381],[-76.12,42.381],[-76.123,42.392],[-76.124,42.392],[-76.124,42.402],[-76.13,42.402],[-76.13,42.41],[-76.293,42.407],[-76.298,42.396],[-76.296,42.39],[-76.3,42.385],[-76.299,42.382],[-76.294,42.38],[-76.281,42.38],[-76.276,42.377],[-76.265,42.375],[-76.25,42.366],[-76.242,42.364],[-76.239,42.357],[-76.238,42.351],[-76.246,42.342],[-76.247,42.329],[-76.25,42.328],[-76.251,42.325],[-76.249,42.316],[-76.251,42.309],[-76.249,42.303],[-76.25,42.297],[-76.288,42.297],[-76.288,42.308],[-76.351,42.308],[-76.351,42.318],[-76.415,42.318],[-76.416,42.263],[-76.475,42.264],[-76.474,42.281],[-76.691,42.284],[-76.691,42.313],[-76.69,42.313],[-76.691,42.373],[-76.686,42.373],[-76.687,42.39],[-76.853,42.384],[-76.855,42.388],[-76.88,42.391],[-76.875,42.383],[-76.983,42.379],[-76.984,42.391],[-77.105,42.389],[-77.108,42.506],[-77.115,42.508],[-77.118,42.504],[-77.127,42.497],[-77.135,42.495],[-77.144,42.495],[-77.169,42.466],[-77.169,42.459],[-77.229,42.459],[-77.23,42.483],[-77.26,42.485],[-77.26,42.458],[-77.269,42.458],[-77.269,42.427],[-77.287,42.427],[-77.287,42.417],[-77.288,42.417],[-77.288,42.41],[-77.291,42.407],[-77.291,42.402],[-77.302,42.402],[-77.302,42.386],[-77.365,42.387],[-77.385,42.373],[-77.403,42.373],[-77.404,42.368],[-77.42,42.368],[-77.42,42.363],[-77.432,42.363],[-77.436,42.364],[-77.44,42.367],[-77.442,42.367],[-77.442,42.363],[-77.471,42.364],[-77.471,42.396],[-77.515,42.398],[-77.514,42.428],[-77.544,42.429],[-77.544,42.443],[-77.556,42.443],[-77.555,42.45],[-77.565,42.451],[-77.565,42.455],[-77.575,42.455],[-77.575,42.451],[-77.585,42.451],[-77.586,42.437],[-77.606,42.438],[-77.606,42.433],[-77.617,42.433],[-77.617,42.428],[-77.665,42.429],[-77.665,42.402],[-77.726,42.404],[-77.723,42.471],[-77.84,42.475],[-77.841,42.518],[-78.043,42.519],[-78.038,42.522],[-78.225,42.522],[-78.465,42.519],[-78.462,42.613],[-78.464,42.694],[-78.463,42.781],[-78.488,42.781],[-78.486,42.867],[-78.464,42.867],[-78.463,43.013],[-78.464,43.089],[-78.468,43.088],[-78.465,43.086],[-78.472,43.081],[-78.472,43.084],[-78.475,43.083],[-78.474,43.084],[-78.476,43.086],[-78.477,43.085],[-78.482,43.084],[-78.482,43.085],[-78.485,43.086],[-78.489,43.083],[-78.493,43.084],[-78.493,43.082],[-78.497,43.082],[-78.5,43.084],[-78.497,43.087],[-78.503,43.087],[-78.501,43.089],[-78.506,43.09],[-78.505,43.092],[-78.506,43.093],[-78.504,43.091],[-78.504,43.093],[-78.507,43.094],[-78.509,43.093],[-78.508,43.096],[-78.51,43.098],[-78.512,43.096],[-78.515,43.095],[-78.516,43.092],[-78.514,43.09],[-78.52,43.089],[-78.522,43.09],[-78.522,43.088],[-78.527,43.087],[-78.528,43.088],[-78.527,43.089],[-78.528,43.091],[-78.53,43.088],[-78.532,43.089],[-78.535,43.086],[-78.536,43.086],[-78.538,43.087],[-78.538,43.086],[-78.54,43.086],[-78.54,43.087],[-78.542,43.088],[-78.54,43.089],[-78.541,43.091],[-78.543,43.089],[-78.547,43.09],[-78.546,43.093],[-78.541,43.094],[-78.542,43.096],[-78.545,43.097],[-78.546,43.099],[-78.55,43.097],[-78.549,43.094],[-78.552,43.093],[-78.561,43.09],[-78.555,43.095],[-78.558,43.095],[-78.56,43.097],[-78.564,43.095],[-78.563,43.094],[-78.565,43.088],[-78.576,43.089],[-78.574,43.087],[-78.575,43.083],[-78.572,43.082],[-78.575,43.08],[-78.577,43.08],[-78.578,43.083],[-78.577,43.084],[-78.579,43.085],[-78.578,43.088],[-78.582,43.089],[-78.585,43.085],[-78.58,43.08],[-78.584,43.076],[-78.583,43.075],[-78.587,43.073],[-78.591,43.076],[-78.592,43.071],[-78.594,43.07],[-78.595,43.07],[-78.595,43.072],[-78.6,43.072],[-78.602,43.074],[-78.603,43.072],[-78.607,43.073],[-78.602,43.077],[-78.607,43.076],[-78.612,43.078],[-78.612,43.076],[-78.616,43.074],[-78.615,43.077],[-78.617,43.078],[-78.612,43.083],[-78.617,43.085],[-78.618,43.087],[-78.618,43.135],[-78.621,43.135],[-78.621,43.14],[-78.629,43.14],[-78.629,43.144],[-78.627,43.143],[-78.625,43.151],[-78.635,43.152],[-78.635,43.151],[-78.632,43.15],[-78.632,43.148],[-78.635,43.148],[-78.638,43.148],[-78.638,43.152],[-78.68,43.154],[-78.68,43.15],[-78.683,43.15],[-78.683,43.151],[-78.709,43.152],[-78.714,43.151],[-78.719,43.144],[-78.724,43.144],[-78.723,43.165],[-78.748,43.159],[-78.748,43.166],[-78.746,43.167],[-78.755,43.167],[-78.755,43.133],[-78.825,43.133],[-78.825,43.122],[-78.838,43.122],[-78.836,43.077],[-78.831,43.077],[-78.823,43.084],[-78.822,43.052],[-78.814,43.052],[-78.805,43.055],[-78.807,43.062],[-78.801,43.066],[-78.778,43.066],[-78.771,43.069],[-78.759,43.071],[-78.747,43.069],[-78.743,43.071],[-78.735,43.083],[-78.728,43.086],[-78.724,43.086],[-78.719,43.081],[-78.715,43.083],[-78.71,43.083],[-78.707,43.087],[-78.697,43.086],[-78.697,42.811],[-78.738,42.811],[-78.738,42.804],[-78.862,42.805],[-78.872,42.822],[-78.873,42.828],[-78.868,42.83],[-78.869,42.832],[-78.957,42.833],[-79.0,42.804],[-79.477,42.625],[-79.762,42.516]]]},"properties":{"CD119":"23","BASENAME":"23"}},{"type":"Feature","geometry":{"type":"Polygon","coordinates":[[[-73.918,40.918],[-73.859,40.9],[-73.857,40.905],[-73.854,40.907],[-73.854,40.909],[-73.851,40.91],[-73.853,40.907],[-73.845,40.906],[-73.844,40.904],[-73.846,40.903],[-73.848,40.899],[-73.85,40.898],[-73.846,40.89],[-73.85,40.884],[-73.844,40.881],[-73.84,40.883],[-73.838,40.879],[-73.834,40.878],[-73.834,40.872],[-73.827,40.859],[-73.819,40.862],[-73.823,40.873],[-73.82,40.886],[-73.824,40.888],[-73.824,40.89],[-73.822,40.889],[-73.823,40.891],[-73.748,40.872],[-73.613,40.951],[-73.66,40.988],[-73.657,40.991],[-73.66,40.994],[-73.66,41.001],[-73.655,41.012],[-73.706,41.074],[-73.707,41.073],[-73.721,41.072],[-73.721,41.079],[-73.724,41.08],[-73.728,41.075],[-73.732,41.076],[-73.735,41.075],[-73.739,41.079],[-73.744,41.078],[-73.747,41.08],[-73.753,41.079],[-73.75,41.064],[-73.751,41.06],[-73.749,41.058],[-73.751,41.054],[-73.744,41.052],[-73.754,41.053],[-73.75,41.058],[-73.752,41.058],[-73.751,41.066],[-73.753,41.068],[-73.758,41.067],[-73.757,41.07],[-73.759,41.07],[-73.762,41.065],[-73.766,41.063],[-73.763,41.059],[-73.762,41.053],[-73.772,41.054],[-73.773,41.062],[-73.783,41.07],[-73.8,41.073],[-73.806,41.075],[-73.819,41.076],[-73.827,41.08],[-73.827,41.082],[-73.833,41.084],[-73.839,41.086],[-73.841,41.084],[-73.848,41.087],[-73.852,41.084],[-73.852,41.079],[-73.857,41.076],[-73.859,41.073],[-73.859,41.072],[-73.856,41.07],[-73.86,41.068],[-73.86,41.066],[-73.855,41.067],[-73.853,41.061],[-73.859,41.061],[-73.86,41.064],[-73.862,41.063],[-73.872,41.07],[-73.895,41.07],[-73.894,41.058],[-73.889,41.038],[-73.894,40.997],[-73.896,40.982],[-73.918,40.918]]]},"properties":{"CD119":"16","BASENAME":"16"}},{"type":"Feature","geometry":{"type":"Polygon","coordinates":[[[-74.234,41.143],[-74.153,41.108],[-73.903,40.997],[-73.894,40.997],[-73.89,41.023],[-73.889,41.038],[-73.894,41.058],[-73.895,41.07],[-73.872,41.07],[-73.862,41.063],[-73.86,41.064],[-73.859,41.061],[-73.853,41.061],[-73.855,41.067],[-73.86,41.066],[-73.86,41.068],[-73.856,41.07],[-73.859,41.072],[-73.859,41.073],[-73.857,41.076],[-73.852,41.079],[-73.852,41.084],[-73.848,41.087],[-73.841,41.084],[-73.839,41.086],[-73.833,41.084],[-73.827,41.082],[-73.827,41.08],[-73.819,41.076],[-73.806,41.075],[-73.8,41.073],[-73.783,41.07],[-73.773,41.062],[-73.772,41.054],[-73.762,41.053],[-73.763,41.059],[-73.765,41.064],[-73.762,41.065],[-73.759,41.07],[-73.757,41.07],[-73.758,41.067],[-73.753,41.068],[-73.751,41.066],[-73.752,41.058],[-73.75,41.058],[-73.754,41.053],[-73.744,41.052],[-73.751,41.054],[-73.749,41.058],[-73.751,41.06],[-73.75,41.064],[-73.753,41.079],[-73.747,41.08],[-73.744,41.078],[-73.739,41.079],[-73.735,41.075],[-73.732,41.076],[-73.728,41.075],[-73.725,41.079],[-73.722,41.079],[-73.721,41.079],[-73.721,41.072],[-73.707,41.073],[-73.728,41.101],[-73.483,41.213],[-73.551,41.295],[-73.521,41.62],[-73.628,41.608],[-73.664,41.588],[-73.667,41.59],[-73.668,41.595],[-73.67,41.597],[-73.668,41.597],[-73.671,41.6],[-73.67,41.605],[-73.672,41.607],[-73.681,41.607],[-73.68,41.611],[-73.682,41.612],[-73.698,41.61],[-73.703,41.613],[-73.707,41.609],[-73.705,41.606],[-73.713,41.603],[-73.713,41.6],[-73.716,41.603],[-73.718,41.603],[-73.724,41.595],[-73.723,41.593],[-73.716,41.593],[-73.712,41.587],[-73.725,41.584],[-73.728,41.581],[-73.765,41.626],[-73.812,41.634],[-73.813,41.632],[-73.809,41.629],[-73.812,41.626],[-73.814,41.62],[-73.817,41.619],[-73.822,41.62],[-73.826,41.616],[-73.835,41.614],[-73.839,41.61],[-73.842,41.61],[-73.843,41.609],[-73.84,41.604],[-73.843,41.602],[-73.841,41.6],[-73.845,41.598],[-73.846,41.595],[-73.853,41.592],[-73.851,41.587],[-73.853,41.586],[-73.853,41.579],[-73.855,41.578],[-73.857,41.573],[-73.855,41.573],[-73.855,41.57],[-73.853,41.569],[-73.853,41.566],[-73.849,41.566],[-73.848,41.564],[-73.845,41.562],[-73.845,41.56],[-73.847,41.557],[-73.847,41.554],[-73.843,41.55],[-73.849,41.549],[-73.861,41.496],[-73.934,41.488],[-73.982,41.439],[-73.967,41.417],[-73.963,41.41],[-73.962,41.403],[-73.959,41.4],[-73.949,41.398],[-73.947,41.395],[-73.958,41.367],[-73.96,41.351],[-73.964,41.344],[-73.981,41.325],[-74.234,41.143]]]},"properties":{"CD119":"17","BASENAME":"17"}},{"type":"Feature","geometry":{"type":"Polygon","coordinates":[[[-74.763,41.448],[-74.762,41.444],[-74.76,41.443],[-74.756,41.434],[-74.752,41.432],[-74.756,41.428],[-74.755,41.425],[-74.743,41.431],[-74.737,41.429],[-74.735,41.422],[-74.739,41.414],[-74.741,41.411],[-74.741,41.406],[-74.735,41.397],[-74.716,41.393],[-74.713,41.389],[-74.708,41.379],[-74.691,41.367],[-74.69,41.362],[-74.696,41.358],[-74.458,41.248],[-74.346,41.193],[-74.234,41.143],[-73.981,41.325],[-73.964,41.344],[-73.96,41.351],[-73.958,41.367],[-73.947,41.395],[-73.949,41.398],[-73.959,41.4],[-73.962,41.403],[-73.963,41.41],[-73.967,41.417],[-73.982,41.439],[-73.934,41.488],[-73.861,41.496],[-73.849,41.549],[-73.843,41.55],[-73.847,41.554],[-73.847,41.557],[-73.845,41.56],[-73.845,41.562],[-73.848,41.564],[-73.849,41.566],[-73.853,41.566],[-73.853,41.569],[-73.855,41.57],[-73.855,41.573],[-73.857,41.573],[-73.855,41.578],[-73.853,41.579],[-73.853,41.586],[-73.851,41.587],[-73.853,41.592],[-73.846,41.595],[-73.845,41.598],[-73.841,41.6],[-73.843,41.602],[-73.84,41.604],[-73.843,41.609],[-73.842,41.61],[-73.839,41.61],[-73.835,41.614],[-73.826,41.616],[-73.822,41.62],[-73.817,41.619],[-73.814,41.62],[-73.812,41.626],[-73.809,41.629],[-73.813,41.632],[-73.812,41.634],[-73.765,41.626],[-73.728,41.581],[-73.725,41.584],[-73.712,41.587],[-73.716,41.593],[-73.723,41.593],[-73.724,41.595],[-73.718,41.603],[-73.716,41.603],[-73.713,41.6],[-73.713,41.603],[-73.705,41.606],[-73.707,41.609],[-73.703,41.613],[-73.698,41.61],[-73.682,41.612],[-73.68,41.611],[-73.681,41.607],[-73.672,41.607],[-73.67,41.605],[-73.671,41.6],[-73.668,41.597],[-73.67,41.597],[-73.668,41.595],[-73.667,41.59],[-73.664,41.588],[-73.628,41.608],[-73.521,41.62],[-73.511,41.759],[-73.49,42.0],[-73.487,42.05],[-73.521,42.05],[-73.527,41.978],[-73.711,42.005],[-73.756,42.024],[-73.903,42.078],[-73.916,42.081],[-73.917,42.077],[-73.93,42.079],[-73.921,42.11],[-73.911,42.127],[-73.918,42.129],[-74.002,42.177],[-74.004,42.163],[-74.025,42.162],[-74.042,42.17],[-74.075,42.097],[-74.272,42.112],[-74.262,42.02],[-74.26,42.019],[-74.256,42.021],[-74.25,42.02],[-74.249,42.012],[-74.243,42.014],[-74.242,42.009],[-74.19,42.003],[-74.152,42.017],[-74.136,42.016],[-74.122,42.019],[-74.118,42.024],[-74.11,42.025],[-74.094,42.016],[-74.093,42.0],[-74.092,42.001],[-74.082,41.999],[-74.084,41.994],[-74.089,41.995],[-74.086,41.975],[-74.058,41.937],[-74.051,41.933],[-74.044,41.905],[-74.035,41.875],[-74.042,41.871],[-74.042,41.864],[-74.045,41.859],[-74.043,41.856],[-74.049,41.854],[-74.05,41.851],[-74.041,41.847],[-74.048,41.831],[-74.046,41.823],[-74.051,41.822],[-74.061,41.812],[-74.063,41.813],[-74.064,41.816],[-74.072,41.818],[-74.073,41.816],[-74.069,41.81],[-74.067,41.804],[-74.069,41.801],[-74.072,41.802],[-74.074,41.807],[-74.079,41.808],[-74.083,41.805],[-74.085,41.8],[-74.116,41.798],[-74.169,41.749],[-74.201,41.752],[-74.225,41.729],[-74.228,41.722],[-74.223,41.716],[-74.224,41.715],[-74.222,41.711],[-74.203,41.727],[-74.195,41.722],[-74.197,41.717],[-74.2,41.714],[-74.195,41.706],[-74.192,41.698],[-74.206,41.697],[-74.21,41.693],[-74.218,41.673],[-74.216,41.671],[-74.216,41.669],[-74.213,41.668],[-74.214,41.666],[-74.218,41.666],[-74.218,41.659],[-74.143,41.641],[-74.144,41.638],[-74.125,41.633],[-74.135,41.616],[-74.126,41.583],[-74.185,41.594],[-74.188,41.591],[-74.252,41.605],[-74.25,41.629],[-74.264,41.633],[-74.268,41.629],[-74.271,41.629],[-74.276,41.626],[-74.281,41.625],[-74.292,41.618],[-74.296,41.62],[-74.3,41.616],[-74.304,41.616],[-74.306,41.609],[-74.312,41.611],[-74.316,41.606],[-74.32,41.603],[-74.33,41.601],[-74.33,41.599],[-74.332,41.597],[-74.335,41.597],[-74.337,41.595],[-74.341,41.594],[-74.343,41.597],[-74.35,41.599],[-74.353,41.595],[-74.352,41.593],[-74.354,41.593],[-74.353,41.592],[-74.366,41.591],[-74.372,41.588],[-74.378,41.586],[-74.38,41.587],[-74.386,41.583],[-74.388,41.583],[-74.39,41.586],[-74.391,41.582],[-74.395,41.581],[-74.398,41.575],[-74.402,41.575],[-74.407,41.572],[-74.409,41.575],[-74.411,41.571],[-74.408,41.57],[-74.408,41.568],[-74.414,41.568],[-74.418,41.57],[-74.42,41.562],[-74.423,41.563],[-74.423,41.56],[-74.43,41.559],[-74.426,41.556],[-74.43,41.556],[-74.431,41.555],[-74.43,41.554],[-74.434,41.554],[-74.436,41.551],[-74.435,41.546],[-74.439,41.547],[-74.438,41.544],[-74.439,41.543],[-74.445,41.544],[-74.446,41.541],[-74.444,41.541],[-74.445,41.537],[-74.45,41.533],[-74.454,41.533],[-74.456,41.532],[-74.456,41.53],[-74.458,41.529],[-74.457,41.528],[-74.463,41.523],[-74.466,41.523],[-74.466,41.517],[-74.472,41.513],[-74.472,41.511],[-74.476,41.51],[-74.474,41.507],[-74.476,41.506],[-74.476,41.504],[-74.495,41.504],[-74.572,41.5],[-74.752,41.494],[-74.754,41.492],[-74.761,41.491],[-74.762,41.489],[-74.76,41.482],[-74.754,41.478],[-74.752,41.473],[-74.753,41.468],[-74.75,41.464],[-74.76,41.461],[-74.759,41.455],[-74.763,41.448]]]},"properties":{"CD119":"18","BASENAME":"18"}},{"type":"Feature","geometry":{"type":"Polygon","coordinates":[[[-76.697,42.547],[-76.686,42.375],[-76.686,42.373],[-76.691,42.373],[-76.69,42.313],[-76.691,42.313],[-76.691,42.284],[-76.474,42.281],[-76.475,42.264],[-76.416,42.263],[-76.415,42.318],[-76.351,42.318],[-76.351,42.308],[-76.288,42.308],[-76.288,42.297],[-76.25,42.297],[-76.249,42.303],[-76.251,42.309],[-76.249,42.316],[-76.251,42.325],[-76.25,42.328],[-76.247,42.329],[-76.246,42.342],[-76.238,42.351],[-76.239,42.357],[-76.242,42.364],[-76.25,42.366],[-76.265,42.375],[-76.276,42.377],[-76.281,42.38],[-76.294,42.38],[-76.299,42.382],[-76.3,42.385],[-76.296,42.39],[-76.298,42.396],[-76.293,42.407],[-76.13,42.41],[-76.13,42.402],[-76.124,42.402],[-76.124,42.392],[-76.123,42.392],[-76.12,42.381],[-76.123,42.381],[-76.122,42.367],[-76.115,42.367],[-76.115,42.357],[-76.112,42.357],[-76.111,42.347],[-76.11,42.347],[-76.109,42.337],[-76.117,42.337],[-76.116,42.327],[-76.112,42.327],[-76.112,42.319],[-76.106,42.319],[-76.106,42.31],[-76.102,42.31],[-76.102,42.303],[-76.099,42.303],[-76.099,42.294],[-76.107,42.294],[-76.107,42.287],[-76.101,42.287],[-76.101,42.278],[-76.088,42.279],[-76.087,42.272],[-76.083,42.272],[-76.081,42.258],[-76.097,42.257],[-76.096,42.249],[-76.091,42.25],[-76.091,42.244],[-76.087,42.244],[-76.087,42.235],[-76.085,42.235],[-76.085,42.23],[-76.081,42.23],[-76.081,42.211],[-76.086,42.211],[-76.084,42.194],[-76.087,42.194],[-76.087,42.187],[-76.116,42.186],[-76.112,42.112],[-76.108,42.112],[-76.107,42.102],[-76.112,42.101],[-76.105,42.032],[-76.106,42.031],[-76.106,41.999],[-75.765,41.998],[-75.36,42.0],[-75.345,41.995],[-75.341,41.993],[-75.338,41.987],[-75.342,41.975],[-75.342,41.972],[-75.328,41.968],[-75.32,41.96],[-75.318,41.954],[-75.311,41.949],[-75.301,41.948],[-75.301,41.953],[-75.293,41.954],[-75.291,41.952],[-75.292,41.947],[-75.29,41.943],[-75.279,41.939],[-75.277,41.933],[-75.277,41.922],[-75.267,41.906],[-75.268,41.902],[-75.273,41.897],[-75.272,41.888],[-75.271,41.887],[-75.263,41.885],[-75.26,41.882],[-75.257,41.876],[-75.264,41.87],[-75.258,41.862],[-75.25,41.862],[-75.241,41.867],[-75.232,41.859],[-75.225,41.858],[-75.22,41.861],[-75.215,41.867],[-75.205,41.87],[-75.195,41.868],[-75.189,41.862],[-75.185,41.86],[-75.182,41.863],[-75.178,41.871],[-75.176,41.873],[-75.172,41.872],[-75.168,41.869],[-75.168,41.859],[-75.163,41.851],[-75.155,41.849],[-75.141,41.852],[-75.131,41.845],[-75.117,41.845],[-75.113,41.842],[-75.115,41.828],[-75.113,41.823],[-75.101,41.819],[-75.09,41.812],[-75.085,41.812],[-75.079,41.815],[-75.072,41.814],[-75.072,41.807],[-75.076,41.8],[-75.081,41.797],[-75.088,41.798],[-75.093,41.797],[-75.102,41.788],[-75.105,41.774],[-75.102,41.77],[-75.095,41.768],[-75.075,41.771],[-75.073,41.769],[-75.061,41.765],[-75.053,41.752],[-75.053,41.744],[-75.055,41.735],[-75.05,41.713],[-75.052,41.712],[-75.066,41.713],[-75.069,41.709],[-75.067,41.705],[-75.059,41.699],[-75.053,41.688],[-75.051,41.68],[-75.058,41.675],[-75.059,41.672],[-75.058,41.669],[-75.054,41.668],[-75.049,41.66],[-75.048,41.646],[-75.049,41.642],[-75.049,41.633],[-75.044,41.623],[-75.044,41.618],[-75.047,41.616],[-75.053,41.618],[-75.06,41.618],[-75.062,41.616],[-75.06,41.61],[-75.064,41.609],[-75.07,41.61],[-75.075,41.608],[-75.075,41.606],[-75.06,41.591],[-75.047,41.584],[-75.04,41.57],[-75.034,41.565],[-75.028,41.564],[-75.019,41.552],[-75.016,41.544],[-75.025,41.54],[-75.025,41.535],[-75.011,41.529],[-75.003,41.523],[-75.001,41.519],[-75.004,41.512],[-75.004,41.508],[-75.0,41.507],[-74.988,41.509],[-74.984,41.507],[-74.982,41.499],[-74.986,41.486],[-74.983,41.48],[-74.958,41.477],[-74.948,41.481],[-74.945,41.483],[-74.933,41.483],[-74.924,41.477],[-74.913,41.476],[-74.909,41.472],[-74.907,41.461],[-74.89,41.456],[-74.889,41.451],[-74.895,41.446],[-74.897,41.441],[-74.895,41.439],[-74.889,41.438],[-74.863,41.444],[-74.858,41.444],[-74.848,41.44],[-74.838,41.432],[-74.832,41.43],[-74.826,41.432],[-74.818,41.441],[-74.808,41.443],[-74.801,41.438],[-74.799,41.431],[-74.794,41.423],[-74.789,41.421],[-74.774,41.426],[-74.762,41.423],[-74.755,41.425],[-74.756,41.428],[-74.752,41.432],[-74.756,41.434],[-74.76,41.443],[-74.762,41.444],[-74.763,41.45],[-74.759,41.455],[-74.76,41.461],[-74.75,41.464],[-74.753,41.468],[-74.752,41.473],[-74.754,41.478],[-74.76,41.482],[-74.76,41.485],[-74.762,41.489],[-74.761,41.491],[-74.754,41.492],[-74.752,41.494],[-74.572,41.5],[-74.495,41.504],[-74.476,41.504],[-74.476,41.506],[-74.474,41.507],[-74.476,41.51],[-74.472,41.511],[-74.472,41.513],[-74.466,41.517],[-74.466,41.523],[-74.463,41.523],[-74.457,41.528],[-74.458,41.529],[-74.456,41.53],[-74.456,41.532],[-74.454,41.533],[-74.45,41.533],[-74.445,41.537],[-74.444,41.541],[-74.446,41.541],[-74.445,41.544],[-74.439,41.543],[-74.438,41.544],[-74.439,41.547],[-74.435,41.546],[-74.436,41.551],[-74.434,41.554],[-74.43,41.554],[-74.431,41.555],[-74.43,41.556],[-74.426,41.556],[-74.43,41.559],[-74.423,41.56],[-74.423,41.563],[-74.42,41.562],[-74.418,41.57],[-74.414,41.568],[-74.408,41.568],[-74.408,41.57],[-74.411,41.571],[-74.409,41.575],[-74.407,41.572],[-74.402,41.575],[-74.398,41.575],[-74.395,41.581],[-74.391,41.582],[-74.39,41.586],[-74.388,41.583],[-74.386,41.583],[-74.38,41.587],[-74.378,41.586],[-74.372,41.588],[-74.366,41.591],[-74.353,41.592],[-74.354,41.593],[-74.352,41.593],[-74.353,41.595],[-74.35,41.599],[-74.343,41.597],[-74.341,41.594],[-74.337,41.595],[-74.335,41.597],[-74.332,41.597],[-74.33,41.599],[-74.33,41.601],[-74.32,41.603],[-74.316,41.606],[-74.312,41.611],[-74.306,41.609],[-74.304,41.616],[-74.3,41.616],[-74.296,41.62],[-74.292,41.618],[-74.281,41.625],[-74.276,41.626],[-74.271,41.629],[-74.268,41.629],[-74.264,41.633],[-74.25,41.629],[-74.252,41.605],[-74.188,41.591],[-74.185,41.594],[-74.126,41.583],[-74.135,41.616],[-74.125,41.633],[-74.144,41.638],[-74.143,41.641],[-74.218,41.659],[-74.218,41.666],[-74.214,41.666],[-74.213,41.668],[-74.216,41.669],[-74.216,41.671],[-74.218,41.673],[-74.21,41.693],[-74.206,41.697],[-74.192,41.698],[-74.195,41.706],[-74.2,41.714],[-74.197,41.717],[-74.195,41.722],[-74.203,41.727],[-74.222,41.711],[-74.224,41.715],[-74.223,41.716],[-74.228,41.722],[-74.225,41.729],[-74.201,41.752],[-74.169,41.749],[-74.116,41.798],[-74.085,41.8],[-74.083,41.805],[-74.079,41.808],[-74.074,41.807],[-74.072,41.802],[-74.069,41.801],[-74.067,41.804],[-74.069,41.81],[-74.073,41.816],[-74.072,41.818],[-74.064,41.816],[-74.063,41.813],[-74.061,41.812],[-74.051,41.822],[-74.046,41.823],[-74.048,41.831],[-74.041,41.847],[-74.05,41.851],[-74.049,41.854],[-74.043,41.856],[-74.045,41.859],[-74.042,41.864],[-74.042,41.871],[-74.035,41.875],[-74.044,41.905],[-74.051,41.933],[-74.058,41.937],[-74.086,41.975],[-74.089,41.995],[-74.084,41.994],[-74.082,41.999],[-74.092,42.001],[-74.093,42.0],[-74.094,42.016],[-74.11,42.025],[-74.118,42.024],[-74.122,42.019],[-74.136,42.016],[-74.152,42.017],[-74.19,42.003],[-74.242,42.009],[-74.243,42.014],[-74.249,42.012],[-74.25,42.02],[-74.256,42.021],[-74.26,42.019],[-74.262,42.02],[-74.272,42.112],[-74.075,42.097],[-74.042,42.17],[-74.025,42.162],[-74.004,42.163],[-74.002,42.177],[-73.918,42.129],[-73.911,42.127],[-73.921,42.11],[-73.93,42.079],[-73.917,42.077],[-73.916,42.081],[-73.903,42.078],[-73.756,42.024],[-73.711,42.005],[-73.527,41.978],[-73.521,42.05],[-73.497,42.05],[-73.508,42.086],[-73.265,42.746],[-73.276,42.746],[-73.291,42.802],[-73.284,42.814],[-73.287,42.82],[-73.285,42.834],[-73.279,42.833],[-73.278,42.838],[-73.596,42.801],[-73.649,42.793],[-73.654,42.791],[-73.65,42.785],[-73.642,42.786],[-73.646,42.779],[-73.64,42.772],[-73.637,42.771],[-73.639,42.77],[-73.642,42.767],[-73.641,42.763],[-73.64,42.763],[-73.642,42.76],[-73.647,42.759],[-73.648,42.752],[-73.645,42.753],[-73.646,42.749],[-73.642,42.749],[-73.644,42.748],[-73.642,42.747],[-73.64,42.747],[-73.643,42.745],[-73.639,42.745],[-73.638,42.738],[-73.628,42.736],[-73.632,42.733],[-73.643,42.731],[-73.656,42.726],[-73.652,42.699],[-73.609,42.703],[-73.629,42.636],[-73.689,42.644],[-73.699,42.648],[-73.699,42.646],[-73.724,42.649],[-73.726,42.647],[-73.728,42.647],[-73.728,42.644],[-73.73,42.645],[-73.735,42.636],[-73.734,42.632],[-73.743,42.632],[-73.745,42.617],[-73.753,42.614],[-73.76,42.614],[-73.761,42.61],[-73.761,42.601],[-73.752,42.577],[-73.752,42.567],[-73.758,42.534],[-73.761,42.526],[-73.777,42.504],[-73.785,42.487],[-73.786,42.475],[-73.784,42.464],[-73.837,42.459],[-73.933,42.445],[-74.254,42.408],[-74.245,42.377],[-74.247,42.379],[-74.259,42.379],[-74.266,42.373],[-74.27,42.367],[-74.277,42.363],[-74.29,42.361],[-74.299,42.363],[-74.313,42.357],[-74.321,42.361],[-74.331,42.357],[-74.341,42.358],[-74.346,42.356],[-74.351,42.36],[-74.355,42.361],[-74.357,42.365],[-74.376,42.371],[-74.379,42.374],[-74.444,42.355],[-74.619,42.424],[-74.712,42.518],[-74.672,42.565],[-74.631,42.627],[-74.636,42.652],[-74.668,42.751],[-74.668,42.764],[-74.665,42.792],[-74.648,42.83],[-74.879,42.898],[-74.891,42.841],[-74.895,42.832],[-74.907,42.825],[-74.983,42.859],[-75.101,42.908],[-75.14,42.86],[-75.211,42.856],[-75.212,42.88],[-75.243,42.878],[-75.246,42.873],[-75.248,42.872],[-75.247,42.869],[-75.245,42.869],[-75.248,42.864],[-75.245,42.865],[-75.245,42.862],[-75.244,42.862],[-75.244,42.858],[-75.247,42.855],[-75.245,42.854],[-75.246,42.853],[-75.245,42.851],[-75.248,42.85],[-75.246,42.847],[-75.248,42.845],[-75.242,42.843],[-75.243,42.839],[-75.241,42.838],[-75.242,42.837],[-75.24,42.834],[-75.25,42.824],[-75.248,42.823],[-75.248,42.822],[-75.246,42.817],[-75.242,42.818],[-75.244,42.815],[-75.248,42.815],[-75.249,42.812],[-75.248,42.807],[-75.25,42.806],[-75.249,42.806],[-75.251,42.802],[-75.25,42.8],[-75.252,42.8],[-75.252,42.798],[-75.25,42.797],[-75.253,42.796],[-75.25,42.792],[-75.252,42.791],[-75.252,42.788],[-75.253,42.787],[-75.251,42.785],[-75.258,42.783],[-75.256,42.781],[-75.259,42.781],[-75.259,42.777],[-75.263,42.776],[-75.264,42.778],[-75.266,42.775],[-75.268,42.776],[-75.273,42.773],[-75.274,42.768],[-75.276,42.767],[-75.274,42.765],[-75.277,42.766],[-75.28,42.764],[-75.278,42.76],[-75.28,42.754],[-75.285,42.751],[-75.288,42.752],[-75.289,42.751],[-75.291,42.752],[-75.29,42.749],[-75.293,42.748],[-75.296,42.744],[-75.428,42.738],[-75.429,42.745],[-75.89,42.724],[-75.884,42.656],[-76.072,42.647],[-76.065,42.543],[-76.097,42.542],[-76.113,42.556],[-76.261,42.55],[-76.266,42.624],[-76.459,42.619],[-76.459,42.627],[-76.614,42.622],[-76.615,42.625],[-76.666,42.623],[-76.656,42.605],[-76.645,42.592],[-76.627,42.574],[-76.612,42.563],[-76.586,42.55],[-76.697,42.547]]]},"properties":{"CD119":"19","BASENAME":"19"}},{"type":"Feature","geometry":{"type":"Polygon","coordinates":[[[-74.306,42.751],[-74.305,42.747],[-74.278,42.719],[-74.271,42.719],[-74.272,42.714],[-74.241,42.717],[-74.24,42.719],[-74.203,42.711],[-74.184,42.712],[-74.18,42.73],[-74.165,42.717],[-74.169,42.691],[-74.169,42.674],[-74.174,42.657],[-74.193,42.627],[-74.194,42.619],[-74.215,42.597],[-74.22,42.591],[-74.22,42.585],[-74.234,42.576],[-74.238,42.563],[-74.237,42.56],[-74.242,42.551],[-74.229,42.529],[-74.226,42.526],[-74.225,42.508],[-74.226,42.499],[-74.228,42.494],[-74.236,42.486],[-74.242,42.472],[-74.245,42.47],[-74.252,42.445],[-74.265,42.42],[-74.263,42.407],[-73.933,42.445],[-73.837,42.459],[-73.784,42.464],[-73.786,42.475],[-73.785,42.487],[-73.777,42.504],[-73.761,42.526],[-73.758,42.534],[-73.752,42.567],[-73.752,42.577],[-73.761,42.601],[-73.761,42.61],[-73.76,42.614],[-73.753,42.614],[-73.745,42.617],[-73.743,42.632],[-73.734,42.632],[-73.735,42.636],[-73.73,42.645],[-73.728,42.644],[-73.728,42.647],[-73.726,42.647],[-73.724,42.649],[-73.699,42.646],[-73.699,42.648],[-73.689,42.644],[-73.629,42.636],[-73.609,42.703],[-73.652,42.699],[-73.656,42.726],[-73.643,42.731],[-73.632,42.733],[-73.628,42.736],[-73.638,42.738],[-73.639,42.745],[-73.643,42.745],[-73.64,42.747],[-73.642,42.747],[-73.644,42.748],[-73.642,42.749],[-73.646,42.749],[-73.645,42.753],[-73.648,42.752],[-73.647,42.759],[-73.642,42.76],[-73.64,42.763],[-73.641,42.763],[-73.642,42.767],[-73.639,42.77],[-73.637,42.771],[-73.64,42.772],[-73.646,42.779],[-73.642,42.786],[-73.65,42.785],[-73.654,42.791],[-73.649,42.793],[-73.611,42.799],[-73.278,42.838],[-73.274,42.944],[-73.38,42.944],[-73.379,42.945],[-73.38,42.948],[-73.389,42.948],[-73.39,42.951],[-73.394,42.953],[-73.403,42.951],[-73.405,42.953],[-73.404,42.956],[-73.408,42.957],[-73.412,42.957],[-73.421,42.955],[-73.425,42.956],[-73.427,42.959],[-73.431,42.959],[-73.449,42.951],[-73.449,42.946],[-73.451,42.945],[-73.635,42.941],[-73.632,42.944],[-73.629,42.952],[-73.629,42.959],[-73.631,42.971],[-73.609,42.982],[-73.607,42.999],[-73.597,43.008],[-73.594,43.014],[-73.744,43.017],[-73.739,43.026],[-73.727,43.035],[-73.724,43.043],[-73.727,43.048],[-73.727,43.053],[-73.72,43.055],[-73.711,43.064],[-73.703,43.07],[-73.702,43.072],[-73.695,43.075],[-73.7,43.102],[-73.668,43.106],[-73.676,43.149],[-73.681,43.153],[-73.699,43.14],[-73.708,43.14],[-73.712,43.15],[-73.722,43.149],[-73.721,43.141],[-73.726,43.141],[-73.728,43.146],[-73.73,43.147],[-73.735,43.144],[-73.741,43.146],[-73.751,43.137],[-73.753,43.139],[-73.762,43.138],[-73.764,43.14],[-73.764,43.139],[-73.769,43.138],[-73.778,43.14],[-73.771,43.096],[-73.78,43.095],[-73.776,43.104],[-73.776,43.108],[-73.779,43.108],[-73.792,43.1],[-73.789,43.094],[-74.111,43.067],[-74.097,42.983],[-74.289,42.984],[-74.284,42.948],[-74.293,42.942],[-74.282,42.938],[-74.278,42.93],[-74.28,42.928],[-74.285,42.928],[-74.289,42.926],[-74.286,42.919],[-74.287,42.914],[-74.283,42.912],[-74.274,42.912],[-74.27,42.906],[-74.272,42.902],[-74.285,42.897],[-74.288,42.892],[-74.286,42.889],[-74.284,42.888],[-74.278,42.892],[-74.276,42.891],[-74.279,42.884],[-74.275,42.874],[-74.264,42.869],[-74.271,42.868],[-74.276,42.865],[-74.278,42.86],[-74.275,42.857],[-74.27,42.858],[-74.265,42.855],[-74.266,42.853],[-74.272,42.85],[-74.272,42.844],[-74.263,42.844],[-74.259,42.841],[-74.263,42.826],[-74.259,42.814],[-74.255,42.81],[-74.255,42.807],[-74.258,42.802],[-74.265,42.799],[-74.262,42.795],[-74.254,42.795],[-74.253,42.79],[-74.248,42.785],[-74.255,42.775],[-74.251,42.766],[-74.259,42.757],[-74.264,42.755],[-74.27,42.757],[-74.29,42.756],[-74.302,42.754],[-74.306,42.751]]]},"properties":{"CD119":"20","BASENAME":"20"}},{"type":"Feature","geometry":{"type":"Polygon","coordinates":[[[-75.887,43.325],[-75.863,43.319],[-75.884,43.156],[-75.875,43.153],[-75.873,43.149],[-75.868,43.147],[-75.86,43.148],[-75.857,43.15],[-75.853,43.156],[-75.84,43.16],[-75.828,43.159],[-75.816,43.161],[-75.798,43.159],[-75.796,43.161],[-75.793,43.16],[-75.786,43.167],[-75.778,43.168],[-75.777,43.17],[-75.778,43.173],[-75.776,43.173],[-75.775,43.171],[-75.769,43.17],[-75.762,43.166],[-75.758,43.161],[-75.754,43.16],[-75.753,43.159],[-75.751,43.16],[-75.75,43.158],[-75.745,43.159],[-75.738,43.165],[-75.732,43.163],[-75.731,43.161],[-75.727,43.162],[-75.728,43.16],[-75.725,43.157],[-75.723,43.16],[-75.724,43.163],[-75.72,43.161],[-75.719,43.158],[-75.723,43.156],[-75.718,43.152],[-75.714,43.153],[-75.716,43.151],[-75.714,43.149],[-75.712,43.151],[-75.707,43.151],[-75.709,43.147],[-75.706,43.145],[-75.707,43.141],[-75.708,43.14],[-75.707,43.137],[-75.702,43.137],[-75.698,43.139],[-75.695,43.14],[-75.697,43.137],[-75.694,43.135],[-75.694,43.133],[-75.687,43.134],[-75.686,43.129],[-75.678,43.127],[-75.685,43.125],[-75.685,43.124],[-75.681,43.124],[-75.681,43.121],[-75.68,43.121],[-75.673,43.122],[-75.674,43.118],[-75.67,43.115],[-75.661,43.116],[-75.66,43.114],[-75.653,43.114],[-75.656,43.11],[-75.653,43.108],[-75.646,43.11],[-75.639,43.114],[-75.641,43.117],[-75.612,43.125],[-75.599,43.125],[-75.591,43.13],[-75.587,43.134],[-75.585,43.133],[-75.588,43.131],[-75.585,43.127],[-75.578,43.13],[-75.575,43.125],[-75.553,43.135],[-75.547,43.128],[-75.514,43.133],[-75.544,43.169],[-75.341,43.179],[-75.339,43.177],[-75.34,43.176],[-75.336,43.174],[-75.337,43.173],[-75.335,43.17],[-75.332,43.172],[-75.333,43.169],[-75.324,43.164],[-75.321,43.164],[-75.314,43.158],[-75.311,43.153],[-75.314,43.149],[-75.308,43.146],[-75.304,43.148],[-75.299,43.145],[-75.3,43.142],[-75.303,43.14],[-75.301,43.138],[-75.299,43.137],[-75.296,43.14],[-75.291,43.14],[-75.282,43.132],[-75.267,43.126],[-75.269,43.124],[-75.264,43.125],[-75.264,43.121],[-75.259,43.123],[-75.258,43.119],[-75.256,43.118],[-75.258,43.116],[-75.255,43.113],[-75.247,43.113],[-75.248,43.116],[-75.243,43.11],[-75.227,43.132],[-75.198,43.122],[-75.161,43.115],[-75.186,43.088],[-75.182,43.088],[-75.184,43.083],[-75.178,43.083],[-75.182,43.075],[-75.196,43.078],[-75.219,43.053],[-75.201,42.881],[-75.212,42.88],[-75.211,42.856],[-75.14,42.86],[-75.101,42.908],[-74.983,42.859],[-74.907,42.825],[-74.895,42.832],[-74.891,42.841],[-74.879,42.898],[-74.648,42.83],[-74.665,42.792],[-74.668,42.764],[-74.668,42.751],[-74.636,42.652],[-74.631,42.627],[-74.672,42.565],[-74.712,42.518],[-74.619,42.424],[-74.444,42.355],[-74.379,42.374],[-74.376,42.371],[-74.357,42.365],[-74.355,42.361],[-74.351,42.36],[-74.346,42.356],[-74.341,42.358],[-74.331,42.357],[-74.321,42.361],[-74.313,42.357],[-74.299,42.363],[-74.29,42.361],[-74.277,42.363],[-74.27,42.367],[-74.266,42.373],[-74.259,42.379],[-74.247,42.379],[-74.245,42.377],[-74.254,42.408],[-74.263,42.407],[-74.265,42.42],[-74.252,42.445],[-74.245,42.47],[-74.242,42.472],[-74.236,42.486],[-74.228,42.494],[-74.226,42.499],[-74.225,42.508],[-74.226,42.526],[-74.229,42.529],[-74.242,42.551],[-74.237,42.56],[-74.238,42.563],[-74.234,42.576],[-74.22,42.585],[-74.22,42.591],[-74.215,42.597],[-74.194,42.619],[-74.193,42.627],[-74.179,42.646],[-74.17,42.667],[-74.168,42.674],[-74.169,42.691],[-74.165,42.717],[-74.18,42.73],[-74.184,42.712],[-74.203,42.711],[-74.24,42.719],[-74.241,42.717],[-74.272,42.714],[-74.271,42.719],[-74.278,42.719],[-74.307,42.75],[-74.302,42.754],[-74.29,42.756],[-74.27,42.757],[-74.264,42.755],[-74.259,42.757],[-74.251,42.766],[-74.255,42.775],[-74.248,42.785],[-74.253,42.79],[-74.254,42.795],[-74.262,42.795],[-74.265,42.799],[-74.258,42.802],[-74.255,42.807],[-74.255,42.81],[-74.259,42.814],[-74.263,42.826],[-74.259,42.841],[-74.263,42.844],[-74.272,42.844],[-74.272,42.85],[-74.266,42.853],[-74.265,42.855],[-74.27,42.858],[-74.275,42.857],[-74.278,42.86],[-74.276,42.865],[-74.271,42.868],[-74.264,42.869],[-74.275,42.874],[-74.279,42.884],[-74.276,42.891],[-74.278,42.892],[-74.284,42.888],[-74.286,42.889],[-74.288,42.892],[-74.285,42.897],[-74.272,42.902],[-74.27,42.906],[-74.274,42.912],[-74.283,42.912],[-74.287,42.914],[-74.286,42.919],[-74.289,42.926],[-74.285,42.928],[-74.28,42.928],[-74.278,42.93],[-74.282,42.938],[-74.293,42.942],[-74.284,42.948],[-74.289,42.984],[-74.097,42.983],[-74.111,43.067],[-73.789,43.094],[-73.792,43.1],[-73.779,43.108],[-73.776,43.108],[-73.776,43.104],[-73.78,43.095],[-73.771,43.096],[-73.778,43.14],[-73.769,43.138],[-73.764,43.139],[-73.764,43.14],[-73.762,43.138],[-73.753,43.139],[-73.751,43.137],[-73.741,43.146],[-73.735,43.144],[-73.73,43.147],[-73.728,43.146],[-73.726,43.141],[-73.721,43.141],[-73.722,43.149],[-73.712,43.15],[-73.708,43.14],[-73.699,43.14],[-73.681,43.153],[-73.676,43.149],[-73.668,43.106],[-73.7,43.102],[-73.695,43.075],[-73.702,43.072],[-73.703,43.07],[-73.711,43.064],[-73.72,43.055],[-73.727,43.053],[-73.727,43.048],[-73.724,43.043],[-73.727,43.035],[-73.739,43.026],[-73.744,43.017],[-73.594,43.014],[-73.597,43.008],[-73.607,42.999],[-73.609,42.982],[-73.631,42.971],[-73.629,42.959],[-73.629,42.952],[-73.632,42.944],[-73.635,42.941],[-73.451,42.945],[-73.449,42.946],[-73.449,42.951],[-73.431,42.959],[-73.427,42.959],[-73.425,42.956],[-73.421,42.955],[-73.412,42.957],[-73.408,42.957],[-73.404,42.956],[-73.405,42.953],[-73.403,42.951],[-73.394,42.953],[-73.39,42.951],[-73.389,42.948],[-73.38,42.948],[-73.379,42.945],[-73.38,42.944],[-73.274,42.944],[-73.257,43.26],[-73.247,43.515],[-73.248,43.516],[-73.246,43.522],[-73.248,43.523],[-73.247,43.526],[-73.242,43.529],[-73.241,43.532],[-73.243,43.534],[-73.242,43.535],[-73.243,43.535],[-73.247,43.542],[-73.25,43.543],[-73.25,43.545],[-73.248,43.545],[-73.25,43.546],[-73.25,43.55],[-73.249,43.551],[-73.249,43.554],[-73.254,43.556],[-73.253,43.557],[-73.259,43.565],[-73.261,43.566],[-73.262,43.566],[-73.264,43.569],[-73.269,43.57],[-73.267,43.571],[-73.268,43.572],[-73.278,43.575],[-73.281,43.574],[-73.281,43.578],[-73.285,43.579],[-73.29,43.578],[-73.294,43.578],[-73.295,43.577],[-73.297,43.579],[-73.292,43.584],[-73.297,43.587],[-73.291,43.599],[-73.298,43.61],[-73.303,43.61],[-73.3,43.618],[-73.303,43.62],[-73.303,43.626],[-73.306,43.628],[-73.311,43.624],[-73.318,43.629],[-73.328,43.626],[-73.334,43.628],[-73.34,43.625],[-73.344,43.626],[-73.349,43.621],[-73.354,43.626],[-73.366,43.623],[-73.372,43.624],[-73.373,43.623],[-73.37,43.619],[-73.376,43.613],[-73.374,43.61],[-73.376,43.609],[-73.373,43.607],[-73.373,43.605],[-73.378,43.6],[-73.377,43.598],[-73.383,43.597],[-73.382,43.592],[-73.387,43.591],[-73.386,43.588],[-73.382,43.587],[-73.385,43.583],[-73.383,43.579],[-73.383,43.577],[-73.385,43.575],[-73.391,43.574],[-73.392,43.57],[-73.395,43.57],[-73.396,43.568],[-73.404,43.57],[-73.417,43.578],[-73.42,43.581],[-73.429,43.584],[-73.431,43.588],[-73.422,43.603],[-73.424,43.612],[-73.418,43.622],[-73.428,43.636],[-73.427,43.643],[-73.419,43.648],[-73.415,43.653],[-73.415,43.658],[-73.408,43.669],[-73.404,43.681],[-73.405,43.69],[-73.395,43.697],[-73.386,43.711],[-73.371,43.725],[-73.37,43.744],[-73.351,43.771],[-73.355,43.778],[-73.358,43.786],[-73.377,43.799],[-73.381,43.811],[-73.39,43.817],[-73.392,43.821],[-73.388,43.833],[-73.377,43.839],[-73.373,43.845],[-73.38,43.852],[-73.382,43.856],[-73.374,43.876],[-73.384,43.891],[-73.396,43.903],[-73.409,43.932],[-73.406,43.948],[-73.406,43.956],[-73.407,43.968],[-73.412,43.978],[-73.412,43.982],[-73.406,44.011],[-73.408,44.021],[-73.412,44.028],[-73.423,44.032],[-73.437,44.043],[-73.438,44.045],[-73.431,44.068],[-73.43,44.079],[-73.415,44.101],[-73.412,44.112],[-73.412,44.12],[-73.416,44.132],[-73.412,44.138],[-73.403,44.145],[-73.403,44.151],[-73.4,44.154],[-73.399,44.162],[-73.396,44.166],[-73.397,44.174],[-73.39,44.182],[-73.391,44.191],[-73.385,44.193],[-73.382,44.198],[-73.375,44.2],[-73.371,44.205],[-73.362,44.209],[-73.362,44.212],[-73.356,44.219],[-73.355,44.223],[-73.351,44.226],[-73.35,44.23],[-73.343,44.234],[-73.343,44.238],[-73.336,44.24],[-73.33,44.244],[-73.324,44.244],[-73.323,44.248],[-73.32,44.25],[-73.313,44.265],[-73.311,44.274],[-73.312,44.28],[-73.32,44.296],[-73.324,44.31],[-73.324,44.334],[-73.327,44.344],[-73.335,44.357],[-73.335,44.364],[-73.334,44.372],[-73.315,44.389],[-73.31,44.404],[-73.296,44.428],[-73.294,44.439],[-73.295,44.446],[-73.3,44.455],[-73.299,44.473],[-73.304,44.486],[-73.307,44.5],[-73.321,44.514],[-73.322,44.525],[-73.33,44.53],[-73.332,44.536],[-73.339,44.543],[-73.339,44.548],[-73.344,44.553],[-73.357,44.558],[-73.375,44.576],[-73.376,44.582],[-73.382,44.589],[-73.377,44.596],[-73.377,44.6],[-73.381,44.605],[-73.383,44.612],[-73.39,44.618],[-73.386,44.627],[-73.387,44.636],[-73.379,44.642],[-73.385,44.647],[-73.378,44.652],[-73.379,44.657],[-73.375,44.662],[-73.37,44.663],[-73.373,44.669],[-73.371,44.673],[-73.372,44.677],[-73.367,44.678],[-73.37,44.685],[-73.365,44.688],[-73.361,44.694],[-73.366,44.698],[-73.366,44.742],[-73.354,44.755],[-73.347,44.773],[-73.336,44.782],[-73.333,44.789],[-73.335,44.804],[-73.353,44.82],[-73.368,44.828],[-73.375,44.836],[-73.379,44.838],[-73.379,44.843],[-73.381,44.845],[-73.38,44.847],[-73.382,44.849],[-73.379,44.852],[-73.38,44.857],[-73.372,44.862],[-73.369,44.867],[-73.36,44.897],[-73.356,44.904],[-73.351,44.91],[-73.341,44.915],[-73.339,44.918],[-73.34,44.943],[-73.338,44.965],[-73.35,44.976],[-73.355,44.987],[-73.343,45.011],[-73.65,45.003],[-73.841,45.002],[-74.15,44.991],[-74.337,44.992],[-74.465,44.997],[-74.663,44.999],[-74.671,45.006],[-74.673,45.001],[-74.684,45.0],[-74.702,45.003],[-74.723,44.998],[-74.731,44.99],[-74.745,44.991],[-74.76,44.995],[-74.763,45.006],[-74.793,45.005],[-74.8,45.011],[-74.802,45.015],[-74.813,45.014],[-74.817,45.012],[-74.827,45.016],[-74.835,45.015],[-74.856,45.005],[-74.863,45.005],[-74.867,45.001],[-74.877,45.001],[-74.888,45.0],[-74.901,44.993],[-74.908,44.983],[-74.948,44.985],[-74.972,44.983],[-74.993,44.977],[-74.999,44.972],[-74.999,44.966],[-75.005,44.958],[-75.027,44.947],[-75.06,44.935],[-75.065,44.929],[-75.097,44.927],[-75.105,44.919],[-75.118,44.921],[-75.134,44.915],[-75.14,44.897],[-75.165,44.894],[-75.189,44.883],[-75.194,44.883],[-75.203,44.878],[-75.218,44.878],[-75.228,44.868],[-75.241,44.867],[-75.256,44.857],[-75.268,44.855],[-75.283,44.849],[-75.308,44.837],[-75.302,44.827],[-75.334,44.806],[-75.344,44.809],[-75.37,44.788],[-75.37,44.783],[-75.388,44.78],[-75.397,44.773],[-75.414,44.772],[-75.424,44.756],[-75.476,44.721],[-75.505,44.705],[-75.62,44.619],[-75.662,44.592],[-75.699,44.566],[-75.726,44.544],[-75.767,44.515],[-75.808,44.472],[-75.821,44.432],[-75.86,44.403],[-75.705,44.332],[-75.629,44.299],[-75.631,44.293],[-75.637,44.287],[-75.636,44.286],[-75.63,44.288],[-75.625,44.285],[-75.627,44.281],[-75.632,44.277],[-75.638,44.276],[-75.64,44.277],[-75.644,44.277],[-75.646,44.273],[-75.654,44.269],[-75.656,44.265],[-75.662,44.264],[-75.664,44.261],[-75.669,44.26],[-75.668,44.259],[-75.67,44.256],[-75.667,44.255],[-75.661,44.256],[-75.656,44.256],[-75.663,44.249],[-75.673,44.247],[-75.694,44.229],[-75.693,44.236],[-75.694,44.236],[-75.701,44.235],[-75.706,44.231],[-75.708,44.234],[-75.711,44.234],[-75.713,44.231],[-75.718,44.225],[-75.716,44.219],[-75.71,44.211],[-75.718,44.208],[-75.719,44.203],[-75.717,44.197],[-75.738,44.206],[-75.794,44.14],[-75.836,44.159],[-75.856,44.167],[-75.858,44.165],[-75.878,44.175],[-75.867,44.038],[-75.858,43.984],[-75.855,43.982],[-75.836,43.99],[-75.825,43.991],[-75.822,43.996],[-75.807,44.001],[-75.806,44.003],[-75.808,44.007],[-75.804,44.013],[-75.795,44.012],[-75.788,44.009],[-75.784,44.01],[-75.779,44.012],[-75.772,44.021],[-75.76,44.026],[-75.752,44.028],[-75.741,44.027],[-75.73,44.031],[-75.721,44.036],[-75.714,44.037],[-75.711,44.046],[-75.706,44.05],[-75.699,44.05],[-75.695,44.055],[-75.688,44.051],[-75.681,44.052],[-75.677,44.049],[-75.678,44.044],[-75.687,44.039],[-75.689,44.033],[-75.685,44.029],[-75.679,44.027],[-75.666,44.019],[-75.66,44.019],[-75.653,44.022],[-75.65,44.02],[-75.644,44.019],[-75.639,44.011],[-75.637,43.997],[-75.632,43.994],[-75.624,43.983],[-75.615,43.979],[-75.613,43.976],[-75.604,43.971],[-75.759,43.879],[-75.84,43.884],[-75.851,43.792],[-75.787,43.789],[-75.767,43.63],[-75.756,43.47],[-75.815,43.484],[-75.887,43.325]]]},"properties":{"CD119":"21","BASENAME":"21"}},{"type":"Feature","geometry":{"type":"Polygon","coordinates":[[[-77.997,43.136],[-77.997,43.133],[-77.906,43.134],[-77.951,43.039],[-77.904,43.037],[-77.907,43.003],[-77.909,43.002],[-77.91,42.988],[-77.731,42.988],[-77.733,42.981],[-77.721,42.979],[-77.718,42.973],[-77.719,42.971],[-77.725,42.971],[-77.726,42.966],[-77.725,42.959],[-77.728,42.953],[-77.733,42.956],[-77.734,42.955],[-77.731,42.947],[-77.733,42.945],[-77.738,42.948],[-77.746,42.944],[-77.752,42.946],[-77.759,42.944],[-77.761,42.943],[-77.759,42.941],[-77.638,42.94],[-77.635,42.944],[-77.479,42.943],[-77.477,42.903],[-77.445,42.897],[-77.433,42.898],[-77.408,42.907],[-77.387,42.912],[-77.37,42.913],[-77.376,43.345],[-77.388,43.632],[-77.994,43.631],[-77.997,43.136]]]},"properties":{"CD119":"25","BASENAME":"25"}},{"type":"Feature","geometry":{"type":"Polygon","coordinates":[[[-73.452,40.82],[-73.439,40.751],[-73.295,40.784],[-73.295,40.804],[-73.231,40.809],[-73.23,40.824],[-73.227,40.824],[-73.128,40.83],[-73.123,40.833],[-73.117,40.83],[-73.117,40.824],[-73.118,40.822],[-73.12,40.807],[-73.05,40.813],[-73.051,40.815],[-73.049,40.815],[-73.049,40.819],[-73.046,40.821],[-73.017,40.824],[-72.97,40.823],[-72.914,40.833],[-72.891,40.844],[-72.887,40.839],[-72.891,40.844],[-72.886,40.847],[-72.866,40.851],[-72.865,40.834],[-72.854,40.834],[-72.841,40.829],[-72.841,40.822],[-72.838,40.822],[-72.837,40.82],[-72.84,40.819],[-72.833,40.806],[-72.829,40.794],[-72.812,40.777],[-72.808,40.77],[-72.808,40.694],[-72.749,40.713],[-72.624,40.746],[-72.374,40.819],[-72.249,40.867],[-71.999,40.956],[-71.932,40.983],[-71.876,40.995],[-71.837,41.011],[-71.794,41.037],[-71.783,41.055],[-71.778,41.067],[-71.778,41.077],[-71.782,41.096],[-71.791,41.102],[-71.791,41.184],[-71.907,41.304],[-71.93,41.31],[-72.019,41.291],[-72.082,41.262],[-72.999,41.087],[-73.25,41.026],[-73.432,40.989],[-73.429,40.919],[-73.427,40.92],[-73.401,40.911],[-73.396,40.914],[-73.388,40.911],[-73.392,40.907],[-73.388,40.906],[-73.392,40.9],[-73.39,40.883],[-73.392,40.882],[-73.389,40.882],[-73.392,40.88],[-73.391,40.874],[-73.394,40.869],[-73.403,40.865],[-73.398,40.86],[-73.383,40.852],[-73.386,40.848],[-73.401,40.848],[-73.412,40.844],[-73.421,40.843],[-73.421,40.829],[-73.439,40.827],[-73.443,40.825],[-73.445,40.821],[-73.452,40.82]]]},"properties":{"CD119":"01","BASENAME":"1"}},{"type":"Feature","geometry":{"type":"Polygon","coordinates":[[[-79.174,43.46],[-79.201,43.45],[-79.07,43.263],[-79.056,43.255],[-79.055,43.249],[-79.056,43.239],[-79.053,43.224],[-79.057,43.21],[-79.049,43.2],[-79.053,43.184],[-79.053,43.174],[-79.051,43.168],[-79.047,43.162],[-79.042,43.144],[-79.044,43.138],[-79.052,43.132],[-78.755,43.133],[-78.755,43.167],[-78.746,43.167],[-78.748,43.166],[-78.748,43.159],[-78.723,43.165],[-78.724,43.144],[-78.719,43.144],[-78.714,43.151],[-78.709,43.152],[-78.683,43.151],[-78.683,43.15],[-78.68,43.15],[-78.68,43.154],[-78.638,43.152],[-78.638,43.148],[-78.635,43.148],[-78.632,43.148],[-78.632,43.15],[-78.635,43.151],[-78.635,43.152],[-78.625,43.151],[-78.627,43.143],[-78.629,43.144],[-78.629,43.14],[-78.621,43.14],[-78.621,43.135],[-78.618,43.135],[-78.618,43.087],[-78.617,43.085],[-78.612,43.083],[-78.617,43.078],[-78.615,43.077],[-78.616,43.074],[-78.612,43.076],[-78.612,43.078],[-78.607,43.076],[-78.602,43.077],[-78.607,43.073],[-78.603,43.072],[-78.602,43.074],[-78.6,43.072],[-78.595,43.072],[-78.595,43.07],[-78.594,43.07],[-78.592,43.071],[-78.591,43.076],[-78.587,43.073],[-78.583,43.075],[-78.584,43.076],[-78.58,43.08],[-78.585,43.085],[-78.582,43.089],[-78.578,43.088],[-78.579,43.085],[-78.577,43.084],[-78.578,43.083],[-78.577,43.08],[-78.575,43.08],[-78.572,43.082],[-78.575,43.083],[-78.574,43.087],[-78.576,43.089],[-78.565,43.088],[-78.563,43.094],[-78.564,43.095],[-78.56,43.097],[-78.558,43.095],[-78.555,43.095],[-78.561,43.09],[-78.552,43.093],[-78.549,43.094],[-78.55,43.097],[-78.546,43.099],[-78.545,43.097],[-78.542,43.096],[-78.541,43.094],[-78.546,43.093],[-78.547,43.09],[-78.543,43.089],[-78.541,43.091],[-78.54,43.089],[-78.542,43.088],[-78.54,43.087],[-78.54,43.086],[-78.538,43.086],[-78.538,43.087],[-78.536,43.086],[-78.535,43.086],[-78.532,43.089],[-78.53,43.088],[-78.528,43.091],[-78.527,43.089],[-78.528,43.088],[-78.527,43.087],[-78.522,43.088],[-78.522,43.09],[-78.52,43.089],[-78.514,43.09],[-78.516,43.092],[-78.515,43.095],[-78.512,43.096],[-78.51,43.098],[-78.508,43.096],[-78.509,43.093],[-78.507,43.094],[-78.504,43.093],[-78.504,43.091],[-78.506,43.093],[-78.505,43.092],[-78.506,43.09],[-78.501,43.089],[-78.503,43.087],[-78.497,43.087],[-78.5,43.084],[-78.497,43.082],[-78.493,43.082],[-78.493,43.084],[-78.489,43.083],[-78.485,43.086],[-78.482,43.085],[-78.482,43.084],[-78.477,43.085],[-78.476,43.086],[-78.474,43.084],[-78.475,43.083],[-78.472,43.084],[-78.472,43.081],[-78.465,43.086],[-78.468,43.088],[-78.464,43.089],[-78.463,43.013],[-78.464,42.867],[-78.486,42.867],[-78.488,42.781],[-78.463,42.781],[-78.464,42.694],[-78.462,42.613],[-78.465,42.519],[-78.225,42.522],[-78.038,42.522],[-78.043,42.519],[-77.841,42.518],[-77.84,42.475],[-77.723,42.471],[-77.726,42.404],[-77.665,42.402],[-77.665,42.429],[-77.617,42.428],[-77.617,42.433],[-77.606,42.433],[-77.606,42.438],[-77.586,42.437],[-77.585,42.451],[-77.575,42.451],[-77.575,42.455],[-77.565,42.455],[-77.565,42.451],[-77.555,42.45],[-77.556,42.443],[-77.544,42.443],[-77.544,42.429],[-77.514,42.428],[-77.515,42.398],[-77.471,42.396],[-77.471,42.364],[-77.442,42.363],[-77.442,42.367],[-77.44,42.367],[-77.436,42.364],[-77.432,42.363],[-77.42,42.363],[-77.42,42.368],[-77.404,42.368],[-77.403,42.373],[-77.385,42.373],[-77.365,42.387],[-77.302,42.386],[-77.302,42.402],[-77.291,42.402],[-77.291,42.407],[-77.288,42.41],[-77.288,42.417],[-77.287,42.417],[-77.287,42.427],[-77.269,42.427],[-77.269,42.458],[-77.26,42.458],[-77.26,42.485],[-77.23,42.483],[-77.229,42.459],[-77.169,42.459],[-77.169,42.466],[-77.144,42.495],[-77.135,42.495],[-77.127,42.497],[-77.118,42.504],[-77.115,42.508],[-77.108,42.506],[-77.105,42.389],[-76.984,42.391],[-76.983,42.379],[-76.875,42.383],[-76.88,42.391],[-76.855,42.388],[-76.853,42.384],[-76.687,42.39],[-76.697,42.547],[-76.586,42.55],[-76.618,42.567],[-76.645,42.592],[-76.656,42.605],[-76.664,42.617],[-76.688,42.675],[-76.695,42.683],[-76.72,42.7],[-76.729,42.713],[-76.734,42.728],[-76.737,42.754],[-76.74,42.789],[-76.738,42.795],[-76.727,42.811],[-76.719,42.825],[-76.717,42.839],[-76.721,42.854],[-76.721,42.87],[-76.725,42.879],[-76.734,42.894],[-76.635,42.898],[-76.635,42.893],[-76.593,42.895],[-76.595,42.931],[-76.597,42.931],[-76.597,42.933],[-76.597,42.936],[-76.596,42.936],[-76.597,42.953],[-76.6,42.953],[-76.601,42.959],[-76.596,42.959],[-76.596,42.956],[-76.591,42.956],[-76.591,42.955],[-76.588,42.955],[-76.589,42.953],[-76.568,42.954],[-76.571,42.997],[-76.569,42.997],[-76.57,43.011],[-76.493,43.015],[-76.499,43.1],[-76.498,43.103],[-76.491,43.106],[-76.474,43.104],[-76.472,43.105],[-76.473,43.115],[-76.476,43.125],[-76.486,43.143],[-76.481,43.146],[-76.473,43.146],[-76.479,43.227],[-76.345,43.233],[-76.345,43.231],[-76.324,43.232],[-76.316,43.229],[-76.308,43.231],[-76.289,43.218],[-76.288,43.212],[-76.283,43.207],[-76.281,43.201],[-76.271,43.204],[-76.262,43.218],[-76.262,43.224],[-76.264,43.226],[-76.267,43.227],[-76.268,43.233],[-76.272,43.235],[-76.276,43.239],[-76.273,43.24],[-76.268,43.24],[-76.264,43.236],[-76.257,43.237],[-76.258,43.234],[-76.25,43.225],[-76.245,43.215],[-76.234,43.212],[-76.23,43.208],[-76.224,43.205],[-76.218,43.205],[-76.208,43.208],[-76.211,43.211],[-76.206,43.217],[-76.199,43.213],[-76.194,43.217],[-76.203,43.222],[-76.205,43.229],[-76.205,43.237],[-76.213,43.24],[-76.211,43.244],[-76.213,43.257],[-76.209,43.264],[-76.212,43.267],[-76.203,43.272],[-76.182,43.258],[-76.18,43.254],[-76.174,43.251],[-76.169,43.247],[-76.148,43.24],[-76.14,43.24],[-76.13,43.234],[-76.116,43.234],[-76.107,43.227],[-76.106,43.224],[-76.099,43.225],[-76.085,43.217],[-76.08,43.216],[-76.079,43.219],[-76.079,43.215],[-76.069,43.215],[-76.068,43.213],[-76.081,43.214],[-76.085,43.213],[-76.085,43.211],[-76.077,43.208],[-76.081,43.209],[-76.082,43.207],[-76.082,43.202],[-76.079,43.2],[-76.058,43.201],[-76.055,43.199],[-76.053,43.201],[-76.052,43.201],[-76.053,43.202],[-76.053,43.203],[-76.048,43.203],[-76.035,43.196],[-76.032,43.191],[-76.024,43.19],[-76.012,43.186],[-76.008,43.181],[-76.003,43.179],[-76.004,43.177],[-76.006,43.178],[-76.004,43.177],[-76.003,43.18],[-75.994,43.182],[-75.993,43.185],[-75.987,43.184],[-75.985,43.18],[-75.98,43.177],[-75.972,43.18],[-75.959,43.18],[-75.959,43.175],[-75.953,43.171],[-75.933,43.177],[-75.928,43.169],[-75.928,43.163],[-75.925,43.162],[-75.884,43.156],[-75.863,43.319],[-75.887,43.325],[-75.815,43.484],[-75.756,43.47],[-75.767,43.63],[-75.787,43.789],[-75.851,43.792],[-75.84,43.884],[-75.759,43.879],[-75.604,43.971],[-75.613,43.976],[-75.615,43.979],[-75.624,43.983],[-75.632,43.994],[-75.637,43.997],[-75.639,44.011],[-75.644,44.019],[-75.65,44.02],[-75.653,44.022],[-75.66,44.019],[-75.666,44.019],[-75.679,44.027],[-75.685,44.029],[-75.689,44.033],[-75.687,44.039],[-75.678,44.044],[-75.677,44.049],[-75.681,44.052],[-75.688,44.051],[-75.695,44.055],[-75.699,44.05],[-75.706,44.05],[-75.711,44.046],[-75.714,44.037],[-75.721,44.036],[-75.73,44.031],[-75.741,44.027],[-75.752,44.028],[-75.76,44.026],[-75.772,44.021],[-75.779,44.012],[-75.784,44.01],[-75.788,44.009],[-75.795,44.012],[-75.804,44.013],[-75.808,44.007],[-75.806,44.003],[-75.807,44.001],[-75.822,43.996],[-75.825,43.991],[-75.835,43.99],[-75.855,43.982],[-75.857,43.983],[-75.867,44.038],[-75.878,44.175],[-75.858,44.165],[-75.856,44.167],[-75.836,44.159],[-75.794,44.14],[-75.738,44.206],[-75.717,44.197],[-75.719,44.203],[-75.718,44.208],[-75.71,44.211],[-75.716,44.219],[-75.718,44.225],[-75.713,44.231],[-75.711,44.234],[-75.708,44.234],[-75.706,44.231],[-75.701,44.235],[-75.694,44.236],[-75.693,44.236],[-75.694,44.229],[-75.673,44.247],[-75.663,44.249],[-75.656,44.256],[-75.661,44.256],[-75.667,44.255],[-75.67,44.256],[-75.668,44.259],[-75.669,44.26],[-75.664,44.261],[-75.662,44.264],[-75.656,44.265],[-75.654,44.269],[-75.646,44.273],[-75.644,44.277],[-75.635,44.276],[-75.627,44.281],[-75.626,44.286],[-75.63,44.288],[-75.636,44.286],[-75.637,44.287],[-75.631,44.293],[-75.629,44.299],[-75.705,44.332],[-75.86,44.403],[-75.913,44.368],[-75.922,44.369],[-75.93,44.359],[-75.941,44.355],[-75.95,44.349],[-75.97,44.343],[-75.973,44.343],[-75.975,44.346],[-75.98,44.346],[-75.982,44.347],[-76.001,44.348],[-76.008,44.344],[-76.046,44.332],[-76.097,44.3],[-76.112,44.298],[-76.118,44.295],[-76.129,44.295],[-76.131,44.296],[-76.162,44.281],[-76.164,44.24],[-76.191,44.221],[-76.207,44.215],[-76.246,44.204],[-76.287,44.204],[-76.313,44.199],[-76.353,44.135],[-76.438,44.094],[-76.499,44.0],[-76.754,43.684],[-76.776,43.63],[-77.0,43.629],[-77.125,43.631],[-77.388,43.632],[-77.376,43.345],[-77.37,42.913],[-77.387,42.912],[-77.408,42.907],[-77.432,42.898],[-77.445,42.897],[-77.477,42.903],[-77.479,42.943],[-77.635,42.944],[-77.638,42.94],[-77.759,42.941],[-77.761,42.943],[-77.759,42.944],[-77.752,42.946],[-77.746,42.944],[-77.738,42.948],[-77.733,42.945],[-77.731,42.947],[-77.734,42.955],[-77.733,42.956],[-77.728,42.953],[-77.725,42.959],[-77.726,42.966],[-77.725,42.971],[-77.719,42.971],[-77.718,42.973],[-77.721,42.979],[-77.733,42.981],[-77.731,42.988],[-77.91,42.988],[-77.909,43.002],[-77.907,43.003],[-77.904,43.037],[-77.951,43.039],[-77.906,43.134],[-77.997,43.133],[-77.994,43.631],[-78.375,43.632],[-78.375,43.633],[-78.688,43.635],[-78.75,43.609],[-79.174,43.46]]]},"properties":{"CD119":"24","BASENAME":"24"}},{"type":"Feature","geometry":{"type":"Polygon","coordinates":[[[-73.487,40.657],[-73.486,40.654],[-73.487,40.649],[-73.485,40.649],[-73.485,40.521],[-73.441,40.532],[-73.406,40.537],[-73.379,40.546],[-73.326,40.557],[-73.291,40.551],[-73.274,40.551],[-73.25,40.563],[-73.125,40.598],[-73.032,40.62],[-72.874,40.675],[-72.829,40.687],[-72.808,40.694],[-72.807,40.768],[-72.812,40.777],[-72.829,40.794],[-72.833,40.806],[-72.84,40.819],[-72.837,40.82],[-72.838,40.822],[-72.841,40.822],[-72.841,40.829],[-72.854,40.834],[-72.865,40.834],[-72.866,40.851],[-72.886,40.847],[-72.891,40.844],[-72.887,40.839],[-72.891,40.844],[-72.914,40.833],[-72.97,40.823],[-73.017,40.824],[-73.046,40.821],[-73.049,40.819],[-73.049,40.815],[-73.051,40.815],[-73.05,40.813],[-73.12,40.807],[-73.118,40.822],[-73.117,40.824],[-73.117,40.83],[-73.123,40.833],[-73.128,40.83],[-73.227,40.824],[-73.23,40.824],[-73.231,40.809],[-73.295,40.804],[-73.295,40.784],[-73.439,40.751],[-73.43,40.707],[-73.443,40.705],[-73.45,40.705],[-73.456,40.71],[-73.459,40.718],[-73.484,40.717],[-73.483,40.712],[-73.486,40.712],[-73.482,40.688],[-73.482,40.669],[-73.481,40.668],[-73.487,40.657]]]},"properties":{"CD119":"02","BASENAME":"2"}},{"type":"Feature","geometry":{"type":"Polygon","coordinates":[[[-73.828,40.804],[-73.823,40.796],[-73.826,40.796],[-73.823,40.791],[-73.826,40.779],[-73.822,40.778],[-73.822,40.772],[-73.817,40.772],[-73.816,40.769],[-73.811,40.769],[-73.811,40.766],[-73.807,40.766],[-73.807,40.764],[-73.804,40.762],[-73.803,40.76],[-73.801,40.76],[-73.801,40.761],[-73.779,40.762],[-73.781,40.767],[-73.774,40.768],[-73.771,40.763],[-73.759,40.764],[-73.758,40.761],[-73.749,40.758],[-73.735,40.745],[-73.734,40.744],[-73.743,40.736],[-73.757,40.726],[-73.75,40.72],[-73.745,40.723],[-73.74,40.717],[-73.734,40.719],[-73.729,40.723],[-73.717,40.726],[-73.589,40.747],[-73.553,40.756],[-73.552,40.744],[-73.554,40.734],[-73.543,40.734],[-73.538,40.724],[-73.525,40.725],[-73.524,40.713],[-73.527,40.713],[-73.523,40.708],[-73.505,40.702],[-73.504,40.705],[-73.492,40.705],[-73.493,40.701],[-73.489,40.702],[-73.484,40.703],[-73.486,40.712],[-73.483,40.712],[-73.484,40.717],[-73.459,40.718],[-73.456,40.71],[-73.45,40.705],[-73.443,40.705],[-73.43,40.707],[-73.452,40.82],[-73.445,40.821],[-73.443,40.825],[-73.439,40.827],[-73.421,40.829],[-73.421,40.843],[-73.412,40.844],[-73.401,40.848],[-73.386,40.848],[-73.383,40.852],[-73.398,40.86],[-73.403,40.865],[-73.394,40.869],[-73.391,40.874],[-73.392,40.88],[-73.389,40.882],[-73.392,40.882],[-73.39,40.883],[-73.392,40.9],[-73.388,40.906],[-73.392,40.907],[-73.388,40.911],[-73.396,40.914],[-73.401,40.911],[-73.427,40.92],[-73.429,40.919],[-73.432,40.989],[-73.613,40.951],[-73.748,40.872],[-73.758,40.846],[-73.78,40.826],[-73.779,40.812],[-73.785,40.803],[-73.788,40.8],[-73.794,40.8],[-73.811,40.805],[-73.828,40.804]]]},"properties":{"CD119":"03","BASENAME":"3"}},{"type":"Feature","geometry":{"type":"Polygon","coordinates":[[[-79.075,43.081],[-79.075,43.078],[-79.007,43.066],[-78.999,43.056],[-79.005,43.047],[-79.012,43.029],[-79.023,43.016],[-79.02,42.995],[-79.012,42.985],[-78.975,42.969],[-78.962,42.958],[-78.932,42.956],[-78.919,42.947],[-78.909,42.933],[-78.906,42.923],[-78.906,42.9],[-78.931,42.85],[-78.957,42.833],[-78.869,42.832],[-78.868,42.83],[-78.873,42.828],[-78.872,42.822],[-78.862,42.805],[-78.738,42.804],[-78.738,42.811],[-78.697,42.811],[-78.697,43.086],[-78.707,43.087],[-78.71,43.083],[-78.715,43.083],[-78.719,43.081],[-78.724,43.086],[-78.728,43.086],[-78.735,43.083],[-78.743,43.071],[-78.747,43.069],[-78.759,43.071],[-78.771,43.069],[-78.778,43.066],[-78.801,43.066],[-78.807,43.062],[-78.807,43.059],[-78.804,43.056],[-78.807,43.054],[-78.814,43.052],[-78.822,43.052],[-78.823,43.084],[-78.831,43.077],[-78.836,43.077],[-78.838,43.122],[-78.825,43.122],[-78.825,43.133],[-79.042,43.132],[-79.052,43.132],[-79.057,43.127],[-79.07,43.12],[-79.06,43.114],[-79.058,43.107],[-79.066,43.091],[-79.075,43.081]]]},"properties":{"CD119":"26","BASENAME":"26"}},{"type":"Feature","geometry":{"type":"Polygon","coordinates":[[[-73.916,40.743],[-73.903,40.741],[-73.904,40.738],[-73.901,40.739],[-73.901,40.734],[-73.905,40.729],[-73.914,40.723],[-73.905,40.713],[-73.885,40.712],[-73.88,40.714],[-73.879,40.712],[-73.875,40.712],[-73.87,40.713],[-73.862,40.712],[-73.865,40.711],[-73.862,40.707],[-73.853,40.707],[-73.843,40.709],[-73.834,40.713],[-73.832,40.715],[-73.826,40.716],[-73.819,40.709],[-73.819,40.71],[-73.817,40.709],[-73.812,40.709],[-73.812,40.706],[-73.809,40.707],[-73.81,40.708],[-73.805,40.709],[-73.803,40.712],[-73.796,40.714],[-73.794,40.712],[-73.796,40.716],[-73.792,40.714],[-73.788,40.717],[-73.791,40.719],[-73.798,40.717],[-73.799,40.72],[-73.797,40.721],[-73.799,40.724],[-73.781,40.729],[-73.779,40.728],[-73.78,40.73],[-73.778,40.73],[-73.775,40.725],[-73.778,40.723],[-73.767,40.726],[-73.757,40.726],[-73.75,40.73],[-73.734,40.744],[-73.749,40.758],[-73.757,40.761],[-73.759,40.764],[-73.771,40.763],[-73.774,40.768],[-73.781,40.767],[-73.779,40.762],[-73.801,40.761],[-73.801,40.76],[-73.803,40.76],[-73.804,40.762],[-73.807,40.764],[-73.807,40.766],[-73.811,40.766],[-73.811,40.769],[-73.816,40.769],[-73.817,40.772],[-73.822,40.772],[-73.822,40.778],[-73.826,40.78],[-73.83,40.774],[-73.838,40.768],[-73.84,40.763],[-73.844,40.762],[-73.851,40.758],[-73.855,40.758],[-73.851,40.75],[-73.869,40.745],[-73.872,40.745],[-73.872,40.749],[-73.889,40.747],[-73.889,40.749],[-73.894,40.749],[-73.896,40.758],[-73.905,40.757],[-73.906,40.757],[-73.905,40.755],[-73.906,40.751],[-73.908,40.75],[-73.91,40.747],[-73.913,40.749],[-73.916,40.743]]]},"properties":{"CD119":"06","BASENAME":"6"}},{"type":"Feature","geometry":{"type":"Polygon","coordinates":[[[-73.997,40.625],[-73.983,40.614],[-73.982,40.608],[-73.984,40.608],[-73.983,40.605],[-73.978,40.604],[-73.977,40.597],[-73.966,40.598],[-73.966,40.6],[-73.957,40.601],[-73.957,40.603],[-73.954,40.604],[-73.954,40.601],[-73.945,40.602],[-73.946,40.605],[-73.942,40.605],[-73.942,40.608],[-73.939,40.61],[-73.941,40.612],[-73.932,40.618],[-73.931,40.617],[-73.93,40.623],[-73.927,40.624],[-73.928,40.626],[-73.92,40.626],[-73.92,40.629],[-73.918,40.629],[-73.92,40.642],[-73.907,40.648],[-73.908,40.649],[-73.912,40.647],[-73.913,40.649],[-73.909,40.652],[-73.92,40.662],[-73.92,40.668],[-73.923,40.667],[-73.923,40.668],[-73.917,40.671],[-73.917,40.673],[-73.925,40.674],[-73.925,40.677],[-73.955,40.679],[-73.956,40.678],[-73.964,40.679],[-73.963,40.676],[-73.967,40.675],[-73.963,40.675],[-73.963,40.672],[-73.969,40.673],[-73.962,40.663],[-73.962,40.655],[-73.966,40.653],[-73.965,40.651],[-73.971,40.648],[-73.981,40.647],[-73.981,40.642],[-73.987,40.636],[-73.985,40.635],[-73.99,40.63],[-73.992,40.632],[-73.996,40.629],[-73.997,40.625]]]},"properties":{"CD119":"09","BASENAME":"9"}},{"type":"Feature","geometry":{"type":"MultiPolygon","coordinates":[[[[-74.053,40.656],[-74.033,40.644],[-74.034,40.644],[-74.037,40.642],[-74.036,40.641],[-74.037,40.638],[-74.036,40.64],[-74.028,40.638],[-74.011,40.629],[-74.007,40.631],[-74.005,40.63],[-73.997,40.625],[-73.996,40.629],[-73.992,40.632],[-73.99,40.63],[-73.985,40.635],[-73.987,40.636],[-73.981,40.642],[-73.981,40.647],[-73.971,40.648],[-73.965,40.651],[-73.966,40.653],[-73.962,40.655],[-73.962,40.663],[-73.969,40.673],[-73.963,40.672],[-73.963,40.675],[-73.967,40.675],[-73.963,40.676],[-73.964,40.679],[-73.972,40.683],[-73.972,40.685],[-73.977,40.685],[-73.977,40.687],[-73.981,40.688],[-73.982,40.692],[-73.991,40.693],[-73.99,40.701],[-73.981,40.701],[-73.979,40.706],[-73.973,40.709],[-73.97,40.708],[-73.968,40.717],[-73.963,40.723],[-73.978,40.729],[-73.979,40.728],[-73.981,40.729],[-73.985,40.732],[-73.984,40.734],[-73.987,40.733],[-73.992,40.735],[-73.99,40.737],[-73.998,40.741],[-73.999,40.739],[-74.008,40.745],[-74.009,40.742],[-74.017,40.744],[-74.026,40.7],[-74.053,40.656]]],[[[-74.041,40.7],[-74.04,40.699],[-74.038,40.699],[-74.041,40.7]]],[[[-74.047,40.691],[-74.044,40.689],[-74.044,40.69],[-74.047,40.691]]]]},"properties":{"CD119":"10","BASENAME":"10"}},{"type":"Feature","geometry":{"type":"Polygon","coordinates":[[[-74.259,40.5],[-74.253,40.487],[-74.225,40.477],[-74.042,40.508],[-74.036,40.551],[-74.034,40.576],[-74.038,40.589],[-73.988,40.58],[-73.99,40.581],[-73.989,40.584],[-73.992,40.587],[-73.993,40.59],[-73.985,40.596],[-73.977,40.597],[-73.978,40.604],[-73.983,40.605],[-73.984,40.608],[-73.982,40.608],[-73.983,40.614],[-73.991,40.622],[-74.005,40.63],[-74.007,40.631],[-74.011,40.629],[-74.028,40.638],[-74.036,40.64],[-74.037,40.638],[-74.036,40.641],[-74.037,40.642],[-74.034,40.644],[-74.033,40.644],[-74.053,40.656],[-74.056,40.651],[-74.087,40.651],[-74.093,40.648],[-74.11,40.648],[-74.126,40.642],[-74.133,40.644],[-74.143,40.642],[-74.186,40.646],[-74.202,40.632],[-74.204,40.624],[-74.202,40.617],[-74.205,40.606],[-74.2,40.6],[-74.2,40.598],[-74.207,40.588],[-74.215,40.56],[-74.218,40.557],[-74.231,40.559],[-74.248,40.549],[-74.25,40.542],[-74.246,40.521],[-74.254,40.516],[-74.258,40.509],[-74.259,40.5]]]},"properties":{"CD119":"11","BASENAME":"11"}},{"type":"Feature","geometry":{"type":"Polygon","coordinates":[[[-73.971,40.816],[-73.965,40.814],[-73.969,40.809],[-73.965,40.806],[-73.969,40.8],[-73.967,40.799],[-73.969,40.798],[-73.969,40.797],[-73.963,40.794],[-73.958,40.8],[-73.95,40.797],[-73.955,40.789],[-73.945,40.783],[-73.943,40.785],[-73.942,40.785],[-73.944,40.783],[-73.938,40.782],[-73.934,40.778],[-73.93,40.776],[-73.917,40.784],[-73.91,40.791],[-73.911,40.793],[-73.912,40.796],[-73.92,40.799],[-73.923,40.802],[-73.927,40.803],[-73.932,40.809],[-73.933,40.836],[-73.928,40.846],[-73.924,40.85],[-73.92,40.85],[-73.921,40.849],[-73.92,40.848],[-73.916,40.85],[-73.916,40.848],[-73.914,40.848],[-73.912,40.851],[-73.909,40.852],[-73.904,40.857],[-73.896,40.857],[-73.894,40.86],[-73.88,40.869],[-73.883,40.874],[-73.884,40.879],[-73.886,40.879],[-73.887,40.883],[-73.89,40.883],[-73.889,40.885],[-73.895,40.886],[-73.898,40.884],[-73.897,40.886],[-73.899,40.884],[-73.902,40.886],[-73.903,40.884],[-73.905,40.885],[-73.915,40.876],[-73.934,40.882],[-73.953,40.851],[-73.964,40.827],[-73.971,40.816]]]},"properties":{"CD119":"13","BASENAME":"13"}},{"type":"Feature","geometry":{"type":"Polygon","coordinates":[[[-73.934,40.882],[-73.915,40.876],[-73.905,40.885],[-73.903,40.884],[-73.902,40.886],[-73.899,40.884],[-73.897,40.886],[-73.898,40.884],[-73.895,40.886],[-73.889,40.885],[-73.89,40.883],[-73.887,40.883],[-73.886,40.879],[-73.884,40.879],[-73.883,40.874],[-73.88,40.869],[-73.894,40.86],[-73.896,40.857],[-73.904,40.857],[-73.909,40.852],[-73.912,40.851],[-73.914,40.848],[-73.916,40.848],[-73.916,40.85],[-73.92,40.848],[-73.921,40.849],[-73.92,40.85],[-73.924,40.85],[-73.927,40.847],[-73.933,40.833],[-73.932,40.808],[-73.929,40.809],[-73.924,40.807],[-73.921,40.812],[-73.915,40.811],[-73.913,40.814],[-73.91,40.813],[-73.909,40.816],[-73.905,40.818],[-73.903,40.817],[-73.902,40.82],[-73.897,40.822],[-73.897,40.826],[-73.895,40.828],[-73.89,40.829],[-73.884,40.84],[-73.877,40.84],[-73.876,40.842],[-73.873,40.841],[-73.868,40.845],[-73.859,40.845],[-73.859,40.847],[-73.85,40.851],[-73.848,40.854],[-73.851,40.855],[-73.849,40.859],[-73.843,40.859],[-73.843,40.863],[-73.841,40.863],[-73.841,40.868],[-73.83,40.862],[-73.835,40.873],[-73.834,40.878],[-73.838,40.879],[-73.84,40.883],[-73.844,40.881],[-73.85,40.884],[-73.846,40.89],[-73.85,40.898],[-73.848,40.899],[-73.846,40.903],[-73.844,40.904],[-73.845,40.906],[-73.853,40.907],[-73.851,40.91],[-73.854,40.909],[-73.854,40.907],[-73.857,40.905],[-73.859,40.9],[-73.918,40.918],[-73.93,40.889],[-73.934,40.882]]]},"properties":{"CD119":"15","BASENAME":"15"}},{"type":"Feature","geometry":{"type":"Polygon","coordinates":[[[-73.769,40.624],[-73.767,40.615],[-73.76,40.611],[-73.755,40.61],[-73.746,40.612],[-73.744,40.608],[-73.738,40.603],[-73.737,40.593],[-73.745,40.593],[-73.755,40.585],[-73.758,40.555],[-73.762,40.55],[-73.769,40.534],[-73.625,40.535],[-73.553,40.529],[-73.518,40.523],[-73.485,40.521],[-73.485,40.649],[-73.487,40.649],[-73.486,40.654],[-73.487,40.657],[-73.481,40.668],[-73.482,40.669],[-73.482,40.688],[-73.484,40.703],[-73.493,40.701],[-73.492,40.705],[-73.504,40.705],[-73.505,40.702],[-73.523,40.708],[-73.527,40.713],[-73.524,40.713],[-73.525,40.725],[-73.538,40.724],[-73.543,40.734],[-73.554,40.734],[-73.552,40.744],[-73.553,40.756],[-73.589,40.747],[-73.694,40.731],[-73.718,40.726],[-73.73,40.722],[-73.727,40.71],[-73.726,40.68],[-73.728,40.674],[-73.728,40.663],[-73.725,40.652],[-73.741,40.647],[-73.742,40.64],[-73.74,40.635],[-73.743,40.635],[-73.741,40.638],[-73.743,40.638],[-73.746,40.635],[-73.767,40.627],[-73.769,40.624]]]},"properties":{"CD119":"04","BASENAME":"4"}}]}